{
"type": "FeatureCollection",
"name": "trazado",
"crs": { "type": "name", "properties": { "name": "urn:ogc:def:crs:EPSG::4686" } },
"features": [
{ "type": "Feature", "properties": { "OBJECTID": 1, "NOMBRE": "EJE PRINCIPAL SEGUNDA LINEA DEL METRO DE BOGOTÁ", "Shape_Leng": 15367.8652332, "SHAPE_Length": 0.13870932546720868 }, "geometry": { "type": "MultiLineString", "coordinates": [ [ [ -74.057865920999973, 4.656571793000069 ], [ -74.061371306999945, 4.659017036000023 ], [ -74.061384430999965, 4.659026191000066 ], [ -74.061397553999939, 4.659035348000032 ], [ -74.061410673999944, 4.659044507000033 ], [ -74.061423791999971, 4.659053671000038 ], [ -74.061436904999937, 4.659062841000036 ], [ -74.061450012999956, 4.659072019000064 ], [ -74.061463114999981, 4.659081206000053 ], [ -74.061476209999967, 4.65909040300005 ], [ -74.061489295999934, 4.659099612000034 ], [ -74.06150237199995, 4.65910883500004 ], [ -74.061515437999958, 4.659118072000069 ], [ -74.061528492999969, 4.659127327000022 ], [ -74.061541534999947, 4.659136599000021 ], [ -74.061554562999959, 4.659145891000037 ], [ -74.061567575999959, 4.659155203000068 ], [ -74.061580572999958, 4.659164538000027 ], [ -74.061593552999966, 4.659173897000073 ], [ -74.061606514999937, 4.659183281000026 ], [ -74.061619457999939, 4.659192692000033 ], [ -74.061632379999935, 4.659202131000029 ], [ -74.061645280999983, 4.659211600000049 ], [ -74.061658158999933, 4.659221100000025 ], [ -74.061671012999966, 4.65923063300005 ], [ -74.061683841999979, 4.659240199000067 ], [ -74.061696644999984, 4.659249801000044 ], [ -74.061709419999943, 4.659259439000039 ], [ -74.061722166999971, 4.659269116000075 ], [ -74.061734882999986, 4.659278832000041 ], [ -74.061747568999976, 4.659288589000028 ], [ -74.061760222999965, 4.659298388000025 ], [ -74.061772841999982, 4.659308230000022 ], [ -74.061887765999984, 4.659401269000057 ], [ -74.061999589999971, 4.659498037000048 ], [ -74.062108190999936, 4.659598430000074 ], [ -74.062119747999986, 4.659609510000053 ], [ -74.062131266999984, 4.659620628000027 ], [ -74.062142748999975, 4.659631786000034 ], [ -74.062154195999938, 4.659642980000058 ], [ -74.06216560699994, 4.659654209000053 ], [ -74.06217698599994, 4.659665473000075 ], [ -74.062188331999948, 4.659676769000043 ], [ -74.062199647999989, 4.659688096000025 ], [ -74.06221093299996, 4.65969945300003 ], [ -74.062222189999943, 4.65971083900007 ], [ -74.062233419999984, 4.659722252000051 ], [ -74.062244623999959, 4.659733690000053 ], [ -74.062255801999981, 4.659745153000074 ], [ -74.062266957999952, 4.659756640000069 ], [ -74.062278090999939, 4.659768147000023 ], [ -74.062289202999978, 4.659779676000028 ], [ -74.062300294999943, 4.65979122300007 ], [ -74.062311368999985, 4.659802788000036 ], [ -74.062322424999934, 4.659814370000049 ], [ -74.062333465999984, 4.659825967000074 ], [ -74.062344491999966, 4.659837578000065 ], [ -74.062355504999971, 4.659849202000032 ], [ -74.062366505999989, 4.659860836000064 ], [ -74.062377495999954, 4.659872482000026 ], [ -74.062388477999946, 4.659884135000027 ], [ -74.062399450999976, 4.659895797000047 ], [ -74.062410416999967, 4.65990746500006 ], [ -74.062421377999954, 4.659919137000031 ], [ -74.062432334999983, 4.659930814000063 ], [ -74.062443289999976, 4.659942493000074 ], [ -74.062454242999934, 4.659954173000074 ], [ -74.064320060999989, 4.661943939000025 ], [ -74.064328026999988, 4.661952434000057 ], [ -74.064335992999986, 4.661960929000031 ], [ -74.064343960999963, 4.661969422000027 ], [ -74.064351929999987, 4.661977914000033 ], [ -74.064359900999989, 4.661986404000061 ], [ -74.06436787399997, 4.661994892000052 ], [ -74.064375850999966, 4.662003377000076 ], [ -74.06438382999994, 4.662011858000028 ], [ -74.064391813999976, 4.662020336000069 ], [ -74.064399802999958, 4.662028809000049 ], [ -74.064407795999955, 4.662037278000071 ], [ -74.064415794999945, 4.662045741000043 ], [ -74.064423800999975, 4.662054199000067 ], [ -74.064431811999953, 4.662062650000053 ], [ -74.064439830999959, 4.662071095000044 ], [ -74.064447856999948, 4.662079533000053 ], [ -74.064455890999966, 4.662087963000033 ], [ -74.064463932999956, 4.662096384000051 ], [ -74.064471984999955, 4.66210479800003 ], [ -74.064480045999971, 4.662113202000057 ], [ -74.064488116999939, 4.66212159600002 ], [ -74.064496197999972, 4.662129980000032 ], [ -74.064504290999935, 4.662138354000035 ], [ -74.064512393999962, 4.662146716000052 ], [ -74.064520509999966, 4.662155067000072 ], [ -74.064528637999956, 4.662163406000047 ], [ -74.06453677899998, 4.662171732000047 ], [ -74.064544932999979, 4.662180045000071 ], [ -74.064553100999944, 4.662188345000061 ], [ -74.064561282999989, 4.662196630000039 ], [ -74.064569479999989, 4.662204901000052 ], [ -74.064717752999968, 4.662349419000066 ], [ -74.064870667999969, 4.662488984000049 ], [ -74.065028058999985, 4.662623445000065 ], [ -74.065189757999974, 4.662752658000045 ], [ -74.065355590999957, 4.662876485000027 ], [ -74.065525378999951, 4.662994792000063 ], [ -74.065698939999947, 4.66310745100003 ], [ -74.065876087999982, 4.66321434300005 ], [ -74.06605663299996, 4.663315352000041 ], [ -74.066066882999962, 4.663320855000052 ], [ -74.066077141999983, 4.663326340000026 ], [ -74.066087410999955, 4.66333180700002 ], [ -74.066097687999957, 4.663337257000023 ], [ -74.066107974999966, 4.663342690000036 ], [ -74.066118268999958, 4.663348108000037 ], [ -74.066128571999968, 4.663353510000036 ], [ -74.066138882999951, 4.663358897000023 ], [ -74.066149200999973, 4.663364270000045 ], [ -74.066159524999989, 4.663369630000034 ], [ -74.066169856999977, 4.663374977000046 ], [ -74.066180194999959, 4.663380311000026 ], [ -74.066190537999944, 4.663385633000075 ], [ -74.066200887999969, 4.66339094500006 ], [ -74.066211242999941, 4.663396246000048 ], [ -74.066221602999974, 4.663401537000027 ], [ -74.066231966999965, 4.663406819000045 ], [ -74.066242335999959, 4.663412092000044 ], [ -74.066252708999968, 4.663417357000071 ], [ -74.066263085999935, 4.663422615000059 ], [ -74.066273465999984, 4.663427866000063 ], [ -74.066283848999944, 4.663433110000028 ], [ -74.066294234999987, 4.663438349000046 ], [ -74.06630462399994, 4.663443584000049 ], [ -74.06631501399994, 4.663448813000059 ], [ -74.066325406999965, 4.663454040000033 ], [ -74.06633580099998, 4.66345926300005 ], [ -74.066346196999973, 4.663464483000041 ], [ -74.066356592999966, 4.663469702000043 ], [ -74.066366989999949, 4.663474919000066 ], [ -74.066377386999989, 4.663480136000032 ], [ -74.072080829999948, 4.66634172800002 ], [ -74.072093825999957, 4.666348249000066 ], [ -74.072106821999967, 4.666354771000044 ], [ -74.072119816999987, 4.666361296000048 ], [ -74.072132809999971, 4.666367824000076 ], [ -74.072145799999987, 4.666374357000052 ], [ -74.072158787999967, 4.666380897000067 ], [ -74.072171770999944, 4.666387444000065 ], [ -74.072184749999963, 4.666393999000036 ], [ -74.072197724999967, 4.666400564000071 ], [ -74.072210693999978, 4.666407141000036 ], [ -74.072223655999949, 4.666413729000055 ], [ -74.072236611999983, 4.66642033200003 ], [ -74.072249559999989, 4.666426949000027 ], [ -74.072262499999965, 4.666433582000025 ], [ -74.072275431999969, 4.66644023200007 ], [ -74.072288353999966, 4.666446900000039 ], [ -74.072301265999954, 4.666453589000071 ], [ -74.072314166999945, 4.666460298000061 ], [ -74.072327056999939, 4.666467029000046 ], [ -74.072339933999956, 4.666473783000072 ], [ -74.072352798999987, 4.666480562000061 ], [ -74.072365650999984, 4.666487366000069 ], [ -74.07237848799997, 4.66649419700002 ], [ -74.072391309999944, 4.666501056000072 ], [ -74.072404116999962, 4.666507945000035 ], [ -74.07241690799998, 4.666514863000032 ], [ -74.072429681999949, 4.666521814000021 ], [ -74.072442437999939, 4.666528797000069 ], [ -74.072455174999959, 4.666535813000053 ], [ -74.072467892999953, 4.666542865000054 ], [ -74.072480591999977, 4.666549953000072 ], [ -74.072631042999944, 4.666637733000073 ], [ -74.072778328999959, 4.666730761000053 ], [ -74.072922267999957, 4.666828920000057 ], [ -74.072934128999975, 4.666837344000044 ], [ -74.072945964999974, 4.666845801000022 ], [ -74.072957778999978, 4.66685429000006 ], [ -74.072969569999941, 4.666862811000044 ], [ -74.072981338999966, 4.666871363000041 ], [ -74.072993086999986, 4.666879943000026 ], [ -74.073004814999933, 4.666888551000056 ], [ -74.073016523999968, 4.666897186000028 ], [ -74.073028212999986, 4.66690584600002 ], [ -74.073039884999957, 4.666914531000032 ], [ -74.073051539999938, 4.666923239000027 ], [ -74.073063177999984, 4.666931969000075 ], [ -74.073074799999972, 4.666940720000071 ], [ -74.073086407999938, 4.666949491000025 ], [ -74.073098000999948, 4.666958281000063 ], [ -74.073109580999983, 4.666967088000035 ], [ -74.073121148999974, 4.666975912000055 ], [ -74.073132704999978, 4.66698475100003 ], [ -74.073144249999984, 4.666993604000027 ], [ -74.073155785999973, 4.667002470000057 ], [ -74.073167311999953, 4.667011349000063 ], [ -74.073178828999971, 4.667020238000021 ], [ -74.07319033899995, 4.667029138000032 ], [ -74.073201842999936, 4.667038046000073 ], [ -74.073213339999938, 4.66704696100004 ], [ -74.073224832999983, 4.667055884000035 ], [ -74.073236320999968, 4.667064811000046 ], [ -74.073247805999983, 4.66707374300006 ], [ -74.073259287999974, 4.667082678000043 ], [ -74.073270768999976, 4.66709161600005 ], [ -74.073282248999988, 4.667100555000047 ], [ -74.075341410999954, 4.66870392900006 ], [ -74.075357482999948, 4.668716443000051 ], [ -74.075373551999974, 4.668728961000056 ], [ -74.075389615999939, 4.668741485000055 ], [ -74.075405673999967, 4.668754017000026 ], [ -74.075421721999987, 4.668766561000041 ], [ -74.075437758999954, 4.668779120000067 ], [ -74.075453782999944, 4.668791696000028 ], [ -74.075469789999943, 4.668804292000061 ], [ -74.075485778999962, 4.668816913000057 ], [ -74.075501747999965, 4.668829559000073 ], [ -74.075517692999938, 4.668842234000067 ], [ -74.075533613999937, 4.668854942000053 ], [ -74.075549505999959, 4.66886768400002 ], [ -74.075565367999957, 4.668880465000029 ], [ -74.075581197999952, 4.668893285000024 ], [ -74.075596992999976, 4.668906149000065 ], [ -74.075612750999937, 4.668919059000075 ], [ -74.075628467999934, 4.668932018000021 ], [ -74.075644142999977, 4.668945029000042 ], [ -74.075659773999973, 4.668958094000061 ], [ -74.075675355999977, 4.668971216000045 ], [ -74.075690888999986, 4.668984398000021 ], [ -74.075706367999942, 4.668997642000022 ], [ -74.075721792999957, 4.669010951000075 ], [ -74.075737158999971, 4.669024327000045 ], [ -74.075752463999947, 4.66903777400006 ], [ -74.075767705999965, 4.669051293000052 ], [ -74.075782880999952, 4.669064887000047 ], [ -74.075797986999987, 4.66907855900007 ], [ -74.075813020999988, 4.669092310000053 ], [ -74.075827979999985, 4.669106144000068 ], [ -74.075926504999984, 4.66920132000007 ], [ -74.076021358999981, 4.669300178000071 ], [ -74.076112405999936, 4.669402577000028 ], [ -74.076199514999985, 4.669508368000038 ], [ -74.076212127999952, 4.669524383000066 ], [ -74.07622465299994, 4.669540467000047 ], [ -74.076237093999964, 4.669556618000058 ], [ -74.076249451999956, 4.669572831000039 ], [ -74.076261730999988, 4.669589106000046 ], [ -74.076273931999935, 4.669605439000065 ], [ -74.076286059999973, 4.669621827000071 ], [ -74.076298115999975, 4.669638268000028 ], [ -74.076310102999969, 4.669654760000071 ], [ -74.076322023999978, 4.669671300000061 ], [ -74.076333881999972, 4.66968788500003 ], [ -74.076345679999974, 4.669704514000045 ], [ -74.076357420999955, 4.669721183000036 ], [ -74.076369106999948, 4.669737891000068 ], [ -74.07638074099998, 4.66975463600005 ], [ -74.076392326999951, 4.669771414000024 ], [ -74.076403866999954, 4.669788224000058 ], [ -74.076415363999956, 4.669805063000069 ], [ -74.076426820999984, 4.669821930000069 ], [ -74.076438241999938, 4.669838821000042 ], [ -74.076449628999967, 4.669855736000045 ], [ -74.076460984999983, 4.669872671000064 ], [ -74.076472313999943, 4.669889625000053 ], [ -74.076483617999941, 4.669906596000033 ], [ -74.076494899999943, 4.669923581000035 ], [ -74.076506163999966, 4.669940578000023 ], [ -74.076517411999987, 4.669957586000066 ], [ -74.076528647999965, 4.669974602000025 ], [ -74.07653987499998, 4.669991624000033 ], [ -74.076551095999946, 4.670008650000057 ], [ -74.076562312999954, 4.670025678000059 ], [ -74.077212889999942, 4.671013317000074 ], [ -74.077224107999939, 4.671030345000077 ], [ -74.077235327999972, 4.671047372000032 ], [ -74.077246554999988, 4.671064394000041 ], [ -74.077257790999965, 4.671081410000056 ], [ -74.077269039999976, 4.671098417000053 ], [ -74.077280303999942, 4.671115415000031 ], [ -74.077291585999944, 4.671132400000033 ], [ -74.077302889999942, 4.671149370000023 ], [ -74.077314218999959, 4.671166324000069 ], [ -74.077325574999975, 4.671183260000021 ], [ -74.077336961999947, 4.671200174000035 ], [ -74.077348382999958, 4.671217066000054 ], [ -74.077359839999986, 4.671233933000053 ], [ -74.077371336999988, 4.671250772000064 ], [ -74.077382876999934, 4.671267582000041 ], [ -74.077394462999962, 4.671284360000072 ], [ -74.077406096999937, 4.671301104000065 ], [ -74.077417782999987, 4.671317812000041 ], [ -74.077429523999967, 4.67133448200002 ], [ -74.07744132199997, 4.671351110000046 ], [ -74.077453179999964, 4.671367696000061 ], [ -74.077465100999973, 4.671384236000051 ], [ -74.077477088999956, 4.671400727000048 ], [ -74.077489144999959, 4.671417169000051 ], [ -74.077501271999949, 4.671433557000057 ], [ -74.077513473999943, 4.67144988900003 ], [ -74.077525752999975, 4.671466164000037 ], [ -74.077538110999967, 4.671482378000064 ], [ -74.077550551999934, 4.671498528000029 ], [ -74.077563076999979, 4.671514612000067 ], [ -74.077575689999946, 4.671530627000038 ], [ -74.077668994999954, 4.671643639000024 ], [ -74.077766793999956, 4.671752759000071 ], [ -74.077868925999951, 4.671857807000038 ], [ -74.077975221999964, 4.671958611000036 ], [ -74.077990324999973, 4.671972286000027 ], [ -74.078005502999986, 4.671985877000054 ], [ -74.078020751999986, 4.671999388000074 ], [ -74.07803606899995, 4.672012821000067 ], [ -74.078051451999954, 4.672026178000067 ], [ -74.078066897999975, 4.672039462000043 ], [ -74.078082403999986, 4.672052675000032 ], [ -74.078097966999962, 4.672065820000057 ], [ -74.078113585999972, 4.672078900000031 ], [ -74.078129255999954, 4.672091916000056 ], [ -74.078144975999976, 4.672104873000023 ], [ -74.078160741999966, 4.672117772000036 ], [ -74.078176552999935, 4.672130616000061 ], [ -74.078192405999971, 4.672143408000068 ], [ -74.078208298999982, 4.672156151000024 ], [ -74.078224227999954, 4.672168847000023 ], [ -74.078240191999953, 4.672181499000033 ], [ -74.078256186999965, 4.672194111000067 ], [ -74.078272212999934, 4.672206684000059 ], [ -74.078288265999959, 4.67221922300007 ], [ -74.078304343999946, 4.672231729000032 ], [ -74.078320443999985, 4.672244206000073 ], [ -74.078336564999972, 4.672256656000059 ], [ -74.07835270399994, 4.67226908300006 ], [ -74.078368858999966, 4.672281489000056 ], [ -74.078385027999957, 4.672293877000072 ], [ -74.078401206999956, 4.672306250000076 ], [ -74.078417395999963, 4.672318612000026 ], [ -74.078433590999964, 4.672330965000072 ], [ -74.078449790999969, 4.672343312000066 ], [ -74.078465992999952, 4.672355656000036 ], [ -74.084632081999985, 4.677053115000035 ], [ -74.084639025999934, 4.677058405000025 ], [ -74.08464596999994, 4.677063695000072 ], [ -74.084652912999957, 4.677068986000052 ], [ -74.084659855999973, 4.677074278000021 ], [ -74.084666797999944, 4.677079570000046 ], [ -74.084673738999982, 4.677084864000051 ], [ -74.084680678999973, 4.677090160000034 ], [ -74.084687616999986, 4.677095457000064 ], [ -74.084694553999952, 4.677100756000073 ], [ -74.084701489999986, 4.677106058000049 ], [ -74.084708422999938, 4.677111362000062 ], [ -74.084715353999968, 4.677116669000043 ], [ -74.084722282999962, 4.677121979000049 ], [ -74.084729208999988, 4.677127292000023 ], [ -74.084736131999989, 4.677132609000068 ], [ -74.084743052999954, 4.677137929000025 ], [ -74.084749970999951, 4.677143254000043 ], [ -74.084756884999933, 4.677148583000076 ], [ -74.084763794999958, 4.677153917000055 ], [ -74.084770701999958, 4.677159255000049 ], [ -74.084777604999942, 4.677164599000037 ], [ -74.08478450399997, 4.677169948000028 ], [ -74.084791398999982, 4.677175302000023 ], [ -74.084798288999934, 4.677180663000058 ], [ -74.084805174999985, 4.67718602900004 ], [ -74.084812054999986, 4.677191402000062 ], [ -74.084818929999983, 4.677196782000067 ], [ -74.084825800999965, 4.677202168000065 ], [ -74.084832664999965, 4.677207561000046 ], [ -74.08483952399996, 4.677212962000056 ], [ -74.084846376999963, 4.677218370000048 ], [ -74.085011085999952, 4.677352254000027 ], [ -74.085172037999939, 4.677490662000025 ], [ -74.085178575999976, 4.677496450000035 ], [ -74.085185106999973, 4.677502245000028 ], [ -74.085191631999976, 4.67750804700006 ], [ -74.085198151999975, 4.677513855000029 ], [ -74.085204664999935, 4.677519671000027 ], [ -74.085211172999948, 4.677525492000029 ], [ -74.085217674999967, 4.677531319000025 ], [ -74.085224172999972, 4.67753715300006 ], [ -74.085230664999983, 4.677542991000053 ], [ -74.08523715299998, 4.677548835000039 ], [ -74.085243635999973, 4.677554684000029 ], [ -74.085250114999951, 4.677560538000023 ], [ -74.085256589999972, 4.677566396000032 ], [ -74.085263060999978, 4.677572259000044 ], [ -74.085269528999959, 4.677578126000071 ], [ -74.085275992999982, 4.677583996000067 ], [ -74.08528245399998, 4.677589870000077 ], [ -74.085288911999953, 4.677595747000055 ], [ -74.085295365999968, 4.677601628000048 ], [ -74.085301818999937, 4.677607511000076 ], [ -74.085308268999938, 4.677613397000073 ], [ -74.08531471699996, 4.677619285000048 ], [ -74.085321162999946, 4.677625176000049 ], [ -74.085327606999954, 4.677631068000039 ], [ -74.085334049999972, 4.677636962000065 ], [ -74.085340490999954, 4.67764285800007 ], [ -74.085346930999947, 4.677648754000074 ], [ -74.08535337099994, 4.677654652000058 ], [ -74.085359809999943, 4.677660550000041 ], [ -74.085366247999957, 4.677666449000071 ], [ -74.085372685999971, 4.677672348000044 ], [ -74.089979252999967, 4.681893135000053 ], [ -74.090231436999943, 4.682126416000074 ], [ -74.090481397999952, 4.68236209500003 ], [ -74.090729110999973, 4.682600150000042 ], [ -74.094231353999987, 4.685998022000035 ], [ -74.094544728999949, 4.686298418000035 ], [ -74.094861680999941, 4.686595010000076 ], [ -74.098331376999965, 4.68980287200003 ], [ -74.09833778899997, 4.689808800000037 ], [ -74.098344200999975, 4.689814727000055 ], [ -74.09835061299998, 4.689820655000062 ], [ -74.098357025999974, 4.689826581000034 ], [ -74.098363439999957, 4.689832507000062 ], [ -74.098369853999941, 4.689838432000045 ], [ -74.09837626999996, 4.689844356000037 ], [ -74.098382686999969, 4.689850278000051 ], [ -74.098389105999956, 4.689856199000076 ], [ -74.098395525999933, 4.689862117000075 ], [ -74.098401947999946, 4.689868034000028 ], [ -74.098408371999938, 4.689873949000059 ], [ -74.098414797999965, 4.689879861000065 ], [ -74.098421225999971, 4.689885771000036 ], [ -74.098427657999935, 4.689891677000048 ], [ -74.098434091999934, 4.689897581000025 ], [ -74.098440527999969, 4.689903482000034 ], [ -74.098446967999962, 4.689909379000028 ], [ -74.098453411999969, 4.689915272000064 ], [ -74.098459858999945, 4.689921162000076 ], [ -74.098466308999946, 4.689927047000026 ], [ -74.098472762999961, 4.689932929000065 ], [ -74.09847922199998, 4.689938806000043 ], [ -74.098485683999968, 4.689944678000074 ], [ -74.098492150999959, 4.689950545000045 ], [ -74.098498621999966, 4.689956408000057 ], [ -74.098505098999965, 4.689962265000077 ], [ -74.098511579999979, 4.689968116000045 ], [ -74.09851806599994, 4.689973962000067 ], [ -74.098524556999962, 4.689979802000039 ], [ -74.098531053999977, 4.689985636000074 ], [ -74.09869708399998, 4.690130952000061 ], [ -74.098866605999945, 4.690272151000045 ], [ -74.098873384999933, 4.690277653000066 ], [ -74.098880168999983, 4.690283148000049 ], [ -74.09888695799998, 4.690288637000037 ], [ -74.098893750999935, 4.690294120000033 ], [ -74.098900549999939, 4.690299598000024 ], [ -74.098907351999969, 4.690305070000022 ], [ -74.098914158999946, 4.690310536000027 ], [ -74.098920969999938, 4.690315998000074 ], [ -74.098927784999944, 4.69032145400007 ], [ -74.098934602999975, 4.690326906000053 ], [ -74.098941425999953, 4.69033235400002 ], [ -74.098948250999968, 4.690337797000041 ], [ -74.098955079999939, 4.690343236000047 ], [ -74.098961911999936, 4.690348671000038 ], [ -74.098968745999969, 4.690354103000061 ], [ -74.098975583999959, 4.69035953100007 ], [ -74.098982423999985, 4.690364956000053 ], [ -74.098989265999933, 4.690370377000022 ], [ -74.098996109999973, 4.690375797000058 ], [ -74.099002956999982, 4.690381213000023 ], [ -74.09900980499998, 4.690386627000066 ], [ -74.099016654999957, 4.690392039000074 ], [ -74.09902350699997, 4.690397450000034 ], [ -74.099030358999983, 4.690402858000027 ], [ -74.099037213999964, 4.69040826500003 ], [ -74.099044068999945, 4.690413670000055 ], [ -74.099050923999982, 4.690419075000023 ], [ -74.099057780999942, 4.690424479000058 ], [ -74.099064637999959, 4.690429882000046 ], [ -74.099071495999965, 4.690435284000046 ], [ -74.099078352999982, 4.690440687000034 ], [ -74.099404444999948, 4.690697578000027 ], [ -74.099411302999954, 4.690702980000026 ], [ -74.099418159999971, 4.690708383000072 ], [ -74.099425016999987, 4.69071378600006 ], [ -74.099431873999947, 4.690719190000038 ], [ -74.099438728999985, 4.690724595000063 ], [ -74.099445583999966, 4.69073000100002 ], [ -74.099452436999968, 4.690735409000069 ], [ -74.09945928999997, 4.690740818000052 ], [ -74.099466139999947, 4.690746230000059 ], [ -74.099472988999935, 4.690751644000045 ], [ -74.099479834999954, 4.690757060000067 ], [ -74.099486679999984, 4.690762479000057 ], [ -74.099493521999989, 4.690767901000072 ], [ -74.099500361999958, 4.690773326000055 ], [ -74.099507197999969, 4.690778755000053 ], [ -74.099514031999945, 4.690784188000066 ], [ -74.099520862999952, 4.690789625000036 ], [ -74.099527689999945, 4.690795065000032 ], [ -74.09953451399997, 4.69080051100002 ], [ -74.099541332999934, 4.690805961000024 ], [ -74.099548148999986, 4.69081141700002 ], [ -74.099554960999967, 4.690816877000032 ], [ -74.099561767999944, 4.690822343000036 ], [ -74.099568570999963, 4.690827815000034 ], [ -74.099575368999979, 4.690833293000026 ], [ -74.099582161999933, 4.690838777000067 ], [ -74.099588948999951, 4.690844268000035 ], [ -74.099595730999965, 4.690849765000053 ], [ -74.099602507999975, 4.690855269000053 ], [ -74.099609278999935, 4.690860781000026 ], [ -74.099616042999969, 4.690866300000039 ], [ -74.099777650999954, 4.691002056000059 ], [ -74.099935474999938, 4.691142223000043 ], [ -74.100089393999951, 4.691286695000031 ], [ -74.100095674999977, 4.691292762000046 ], [ -74.100101948999963, 4.691298836000044 ], [ -74.100108216999956, 4.691304917000025 ], [ -74.100114478999956, 4.691311004000056 ], [ -74.100120734999962, 4.69131709800007 ], [ -74.100126984999974, 4.691323197000031 ], [ -74.100133228999937, 4.691329303000032 ], [ -74.100139467999952, 4.691335413000047 ], [ -74.100145701999963, 4.691341530000045 ], [ -74.100151930999971, 4.691347651000058 ], [ -74.100158154999974, 4.691353777000074 ], [ -74.100164374999963, 4.691359907000049 ], [ -74.100170589999948, 4.691366042000027 ], [ -74.100176801999964, 4.691372181000077 ], [ -74.100183008999977, 4.691378324000027 ], [ -74.100189212999965, 4.69138447000006 ], [ -74.100195413999984, 4.69139062000005 ], [ -74.100201610999989, 4.691396773000065 ], [ -74.100207805999958, 4.691402929000049 ], [ -74.100213997999958, 4.691409088000057 ], [ -74.100220186999934, 4.691415250000034 ], [ -74.100226373999988, 4.691421413000057 ], [ -74.100232558999949, 4.691427579000049 ], [ -74.100238741999988, 4.691433747000076 ], [ -74.100244923999981, 4.691439916000036 ], [ -74.100251103999938, 4.691446086000042 ], [ -74.100257283999952, 4.691452258000027 ], [ -74.100263461999987, 4.691458430000068 ], [ -74.100269638999976, 4.691464604000032 ], [ -74.100275816999954, 4.691470777000063 ], [ -74.100281992999953, 4.691476951000027 ], [ -74.102947046999986, 4.694140718000028 ], [ -74.102961458999971, 4.694155124000076 ], [ -74.102975868999977, 4.694169533000036 ], [ -74.102990273999978, 4.694183947000056 ], [ -74.103004669999962, 4.694198369000048 ], [ -74.103019056999983, 4.694212802000038 ], [ -74.103033429999982, 4.694227247000072 ], [ -74.10304778699998, 4.694241709000039 ], [ -74.103062125999941, 4.694256189000043 ], [ -74.103076443999953, 4.694270689000064 ], [ -74.103090737999935, 4.694285214000047 ], [ -74.103105005999964, 4.69429976400005 ], [ -74.103119244999959, 4.69431434300003 ], [ -74.103133451999952, 4.694328953000024 ], [ -74.103147624999963, 4.694343597000056 ], [ -74.103161759999978, 4.694358277000049 ], [ -74.103175854999961, 4.694372996000027 ], [ -74.103189907999933, 4.694387756000026 ], [ -74.103203913999948, 4.694402559000025 ], [ -74.103217872999949, 4.694417409000039 ], [ -74.103231779999987, 4.694432306000067 ], [ -74.103245632999972, 4.694447255000057 ], [ -74.103259428999934, 4.694462257000055 ], [ -74.103273163999972, 4.694477314000039 ], [ -74.103286836999985, 4.694492428000046 ], [ -74.103300443999956, 4.694507602000044 ], [ -74.103313981999975, 4.694522839000058 ], [ -74.103327447999959, 4.694538139000031 ], [ -74.103340837999951, 4.694553506000034 ], [ -74.103354150999962, 4.694568941000057 ], [ -74.103367381999988, 4.694584446000022 ], [ -74.103380527999946, 4.694600024000067 ], [ -74.103481294999938, 4.694725689000052 ], [ -74.103576376999968, 4.694855739000047 ], [ -74.103665582999952, 4.694989913000029 ], [ -74.103748736999989, 4.695127945000024 ], [ -74.10382567299996, 4.695269560000042 ], [ -74.103896237999948, 4.695414477000043 ], [ -74.103960291999954, 4.695562407000068 ], [ -74.104017705999979, 4.695713055000056 ], [ -74.104068367999957, 4.69586612300003 ], [ -74.104112175999944, 4.696021305000045 ], [ -74.10414904299995, 4.69617829300006 ], [ -74.104178894999961, 4.696336774000031 ], [ -74.104201672999977, 4.69649643300005 ], [ -74.104217332999951, 4.696656953000058 ], [ -74.104225841999948, 4.696818013000041 ], [ -74.104227182999978, 4.696979294000073 ], [ -74.104221354999936, 4.697140475000026 ], [ -74.104208368999934, 4.697301234000065 ], [ -74.104188249999936, 4.697461253000029 ], [ -74.104161037999972, 4.697620212000061 ], [ -74.104126788999963, 4.697777795000036 ], [ -74.104085568999949, 4.697933689000024 ], [ -74.104037459999972, 4.698087584000064 ], [ -74.103982559999963, 4.698239173000047 ], [ -74.103920975999984, 4.698388155000032 ], [ -74.103852830999983, 4.698534234000022 ], [ -74.103778261999935, 4.698677117000045 ], [ -74.103697414999942, 4.698816523000062 ], [ -74.103610452999988, 4.698952172000077 ], [ -74.103599021999969, 4.698969057000056 ], [ -74.103587497999968, 4.69898587900002 ], [ -74.103575886999977, 4.699002639000071 ], [ -74.103564189999986, 4.699019340000063 ], [ -74.103552411999942, 4.699035983000044 ], [ -74.103540554999938, 4.699052570000049 ], [ -74.103528622999988, 4.699069102000067 ], [ -74.103516618999947, 4.699085582000066 ], [ -74.103504546999943, 4.699102012000026 ], [ -74.103492408999955, 4.699118392000059 ], [ -74.10348020899994, 4.699134726000068 ], [ -74.103467948999935, 4.69915101600003 ], [ -74.103455632999953, 4.699167263000049 ], [ -74.103443264999953, 4.699183469000047 ], [ -74.103430845999981, 4.69919963600006 ], [ -74.103418380999983, 4.699215768000045 ], [ -74.10340587099995, 4.699231865000058 ], [ -74.103393320999942, 4.69924793000007 ], [ -74.103380732999938, 4.699263965000057 ], [ -74.103368109999963, 4.699279972000056 ], [ -74.103355454999985, 4.699295954000036 ], [ -74.103342770999973, 4.699311913000031 ], [ -74.103330060999951, 4.699327851000021 ], [ -74.103317327999946, 4.699343771000031 ], [ -74.103304573999935, 4.69935967400005 ], [ -74.10329180399998, 4.699375563000046 ], [ -74.103279018999956, 4.699391441000046 ], [ -74.103266221999945, 4.699407309000037 ], [ -74.103253416999962, 4.699423170000046 ], [ -74.103240605999986, 4.699439027000039 ], [ -74.103227791999984, 4.699454881000065 ], [ -74.096714863999978, 4.70751247000004 ], [ -74.096709371999964, 4.70751926500003 ], [ -74.09670387999995, 4.707526059000031 ], [ -74.096698386999947, 4.707532853000032 ], [ -74.096692892999954, 4.707539646000043 ], [ -74.096687398999961, 4.707546438000065 ], [ -74.096681902999933, 4.70755323000003 ], [ -74.096676405999972, 4.707560020000074 ], [ -74.096670906999975, 4.707566808000024 ], [ -74.096665405999943, 4.707573596000032 ], [ -74.096659902999988, 4.707580381000071 ], [ -74.096654396999952, 4.707587164000074 ], [ -74.096648888999937, 4.707593945000042 ], [ -74.096643376999964, 4.707600724000031 ], [ -74.096637861999966, 4.707607499000062 ], [ -74.096632343999943, 4.707614273000047 ], [ -74.096626822999951, 4.707621043000074 ], [ -74.096621296999956, 4.70762780900003 ], [ -74.096615766999946, 4.707634573000064 ], [ -74.096610231999989, 4.707641332000037 ], [ -74.096604692999961, 4.707648088000042 ], [ -74.096599148999985, 4.707654840000032 ], [ -74.096593599999949, 4.707661587000075 ], [ -74.096588044999976, 4.707668330000047 ], [ -74.096582484999942, 4.707675068000071 ], [ -74.096576917999982, 4.707681801000035 ], [ -74.096571345999962, 4.707688530000041 ], [ -74.096565766999959, 4.707695252000065 ], [ -74.096560181999962, 4.707701970000073 ], [ -74.096554588999936, 4.707708681000042 ], [ -74.096548989999974, 4.707715387000064 ], [ -74.096543382999982, 4.707722086000047 ], [ -74.096399554999948, 4.707888822000029 ], [ -74.096251017999975, 4.708051349000073 ], [ -74.096097893999968, 4.708209532000069 ], [ -74.095940307999967, 4.708363241000029 ], [ -74.095778390999953, 4.708512350000035 ], [ -74.095771879999972, 4.708518169000058 ], [ -74.095765362999941, 4.708523980000052 ], [ -74.095758839999974, 4.708529785000053 ], [ -74.095752309999966, 4.708535583000071 ], [ -74.095745774999955, 4.708541374000049 ], [ -74.09573923499994, 4.708547159000034 ], [ -74.095732688999988, 4.708552938000025 ], [ -74.095726137999975, 4.708558711000023 ], [ -74.095719582999948, 4.708564478000028 ], [ -74.095713022999973, 4.708570241000075 ], [ -74.095706457999938, 4.708575998000072 ], [ -74.095699888999945, 4.708581750000064 ], [ -74.095693315999938, 4.708587498000043 ], [ -74.095686738999973, 4.708593241000074 ], [ -74.095680158999983, 4.708598980000033 ], [ -74.095673574999978, 4.708604716000025 ], [ -74.095666987999948, 4.708610448000059 ], [ -74.095660398999939, 4.708616176000021 ], [ -74.095653805999973, 4.708621901000072 ], [ -74.095647210999971, 4.708627623000041 ], [ -74.095640613999933, 4.708633343000031 ], [ -74.095634014999973, 4.708639060000053 ], [ -74.095627412999988, 4.708644775000039 ], [ -74.095620809999957, 4.708650488000046 ], [ -74.095614205999937, 4.708656199000075 ], [ -74.095607599999937, 4.708661909000057 ], [ -74.095600993999938, 4.70866761800005 ], [ -74.095594385999959, 4.708673326000053 ], [ -74.095587777999981, 4.70867903200002 ], [ -74.095581168999956, 4.708684739000034 ], [ -74.095574560999978, 4.708690445000059 ], [ -74.092814379999936, 4.711073617000068 ], [ -74.092798958999936, 4.711086932000057 ], [ -74.09278354099996, 4.711100249000026 ], [ -74.092768127999989, 4.711113572000045 ], [ -74.092752722999933, 4.711126904000025 ], [ -74.092737326999952, 4.71114024700006 ], [ -74.092721942999958, 4.71115360400006 ], [ -74.092706572999987, 4.711166978000051 ], [ -74.092691220999939, 4.711180371000069 ], [ -74.092675887999974, 4.71119378700007 ], [ -74.092660576999947, 4.711207228000035 ], [ -74.09264528999995, 4.711220697000044 ], [ -74.092630029999953, 4.711234197000067 ], [ -74.092614799999978, 4.711247730000025 ], [ -74.09259960199995, 4.711261300000047 ], [ -74.09258443799996, 4.711274908000064 ], [ -74.092569311999966, 4.711288557000046 ], [ -74.092554224999958, 4.711302251000063 ], [ -74.09253917999996, 4.711315992000038 ], [ -74.092524179999941, 4.711329782000064 ], [ -74.092509227999983, 4.711343624000051 ], [ -74.09249432699994, 4.711357520000035 ], [ -74.092479477999973, 4.711371474000032 ], [ -74.092464685999971, 4.71138548700003 ], [ -74.092449951999981, 4.711399562000054 ], [ -74.092435278999972, 4.711413702000073 ], [ -74.092420670999957, 4.711427909000065 ], [ -74.092406128999983, 4.71144218400002 ], [ -74.09239165799994, 4.711456532000057 ], [ -74.092377260999967, 4.71147095300006 ], [ -74.092362938999941, 4.711485450000055 ], [ -74.092348695999988, 4.711500026000067 ], [ -74.09224001399997, 4.711616934000062 ], [ -74.092136588999949, 4.711738547000039 ], [ -74.09203862399994, 4.711864628000058 ], [ -74.091946307999933, 4.711994931000049 ], [ -74.091859823999982, 4.712129200000049 ], [ -74.09177933899997, 4.712267174000033 ], [ -74.091705012999967, 4.712408582000023 ], [ -74.091636987999948, 4.71255314800004 ], [ -74.091575399999954, 4.712700589000065 ], [ -74.091520366999987, 4.712850617000072 ], [ -74.091471998999964, 4.713002940000024 ], [ -74.091430387999935, 4.71315725900007 ], [ -74.091395616999989, 4.71331327200005 ], [ -74.091367752999986, 4.713470674000064 ], [ -74.091346851999958, 4.71362915900005 ], [ -74.091332952999949, 4.713788416000057 ], [ -74.091326084999935, 4.713948133000031 ], [ -74.09132625999996, 4.714107999000021 ], [ -74.091333477999967, 4.71426770000005 ], [ -74.091347724999935, 4.714426926000044 ], [ -74.091368972999987, 4.714585364000072 ], [ -74.091397180999934, 4.714742705000049 ], [ -74.091432293999958, 4.714898641000048 ], [ -74.091474241999947, 4.715052868000043 ], [ -74.091522943999962, 4.715205083000058 ], [ -74.091578304999985, 4.715354990000037 ], [ -74.091640215999973, 4.715502296000068 ], [ -74.091708556999947, 4.715646711000034 ], [ -74.091783193999959, 4.715787955000053 ], [ -74.091793167999981, 4.715805745000068 ], [ -74.091803238999944, 4.715823481000029 ], [ -74.091813402999946, 4.71584116300005 ], [ -74.091823656999964, 4.715858792000063 ], [ -74.091833996999981, 4.715876371000036 ], [ -74.091844419999973, 4.715893900000026 ], [ -74.091854922999971, 4.715911382000058 ], [ -74.091865500999972, 4.715928818000066 ], [ -74.091876151999941, 4.715946209000037 ], [ -74.091886872999964, 4.715963556000077 ], [ -74.091897658999983, 4.715980863000027 ], [ -74.09190850899995, 4.71599813000006 ], [ -74.091919416999986, 4.716015360000029 ], [ -74.091930381999987, 4.716032553000048 ], [ -74.091941399999939, 4.716049712000029 ], [ -74.091952467999988, 4.716066839000064 ], [ -74.091963582999938, 4.716083936000075 ], [ -74.091974740999945, 4.716101004000052 ], [ -74.091985938999983, 4.716118046000076 ], [ -74.091997173999971, 4.716135063000024 ], [ -74.092008442999941, 4.716152057000045 ], [ -74.09201974299998, 4.716169031000049 ], [ -74.092031069999962, 4.716185986000028 ], [ -74.092042422999953, 4.716202924000072 ], [ -74.092053795999959, 4.716219848000037 ], [ -74.092065188999982, 4.716236760000072 ], [ -74.09207659599997, 4.716253661000053 ], [ -74.092088015999934, 4.716270554000062 ], [ -74.092099444999974, 4.716287440000031 ], [ -74.09211087999995, 4.716304323000031 ], [ -74.092122317999952, 4.716321203000064 ], [ -74.094432339999969, 4.719730043000027 ], [ -74.09444296199996, 4.719745717000023 ], [ -74.094453585999986, 4.719761389000041 ], [ -74.094464215999949, 4.719777058000034 ], [ -74.094474852999952, 4.719792721000033 ], [ -74.094485499999962, 4.719808378000039 ], [ -74.094496159999949, 4.719824027000072 ], [ -74.094506833999958, 4.719839665000052 ], [ -74.094517525999947, 4.719855291000044 ], [ -74.094528236999963, 4.719870904000061 ], [ -74.094538970999963, 4.719886501000076 ], [ -74.094549728999937, 4.719902081000043 ], [ -74.094560514999955, 4.719917642000041 ], [ -74.094571329999951, 4.719933182000034 ], [ -74.094582177999939, 4.719948700000032 ], [ -74.094593059999966, 4.719964194000056 ], [ -74.094603977999952, 4.719979661000025 ], [ -74.094614935999971, 4.719995101000052 ], [ -74.094625934999954, 4.720010511000055 ], [ -74.094636978999972, 4.720025889000055 ], [ -74.094648067999969, 4.720041233000074 ], [ -74.09465920699995, 4.720056542000066 ], [ -74.09467039599997, 4.72007181400005 ], [ -74.09468163799994, 4.72008704600006 ], [ -74.094692935999944, 4.720102237000049 ], [ -74.09470429199996, 4.720117384000048 ], [ -74.094715707999967, 4.720132486000068 ], [ -74.094727184999954, 4.720147541000074 ], [ -74.094738727999982, 4.72016254600004 ], [ -74.094750335999947, 4.720177499000044 ], [ -74.094762013999969, 4.720192398000052 ], [ -74.094773761999988, 4.720207241000026 ], [ -74.094875618999936, 4.720329966000065 ], [ -74.094982472999959, 4.720448339000029 ], [ -74.095094136999933, 4.72056215300006 ], [ -74.095107698999982, 4.720575349000057 ], [ -74.095121322999944, 4.720588479000071 ], [ -74.095135007999943, 4.720601546000069 ], [ -74.095148749999964, 4.72061455100004 ], [ -74.095162547999962, 4.720627498000056 ], [ -74.095176399999957, 4.720640386000071 ], [ -74.095190301999935, 4.720653220000031 ], [ -74.095204252999963, 4.720666 ], [ -74.095218250999949, 4.720678729000042 ], [ -74.095232292999981, 4.72069140800005 ], [ -74.095246376999967, 4.720704041000033 ], [ -74.095260500999984, 4.720716628000048 ], [ -74.095274662999941, 4.720729173000052 ], [ -74.095288860999972, 4.720741676000046 ], [ -74.095303091999938, 4.720754141000043 ], [ -74.095317354999963, 4.720766570000023 ], [ -74.095331647999956, 4.720778965000022 ], [ -74.095345967999947, 4.720791327000029 ], [ -74.095360312999958, 4.720803660000058 ], [ -74.095374681999942, 4.720815965000043 ], [ -74.095389072999978, 4.720828245000064 ], [ -74.095403482999984, 4.720840502000044 ], [ -74.095417909999981, 4.720852739000065 ], [ -74.095432352999978, 4.720864956000071 ], [ -74.095446808999952, 4.720877158000064 ], [ -74.09546127699997, 4.720889346000035 ], [ -74.095475754999939, 4.720901522000077 ], [ -74.095490240999936, 4.720913689000042 ], [ -74.095504731999938, 4.720925849000025 ], [ -74.095519226999954, 4.72093800500005 ], [ -74.095533723999949, 4.720950158000051 ], [ -74.096890841999937, 4.722087797000029 ], [ -74.09690199299996, 4.722097145000021 ], [ -74.096913143999984, 4.722106495000048 ], [ -74.096924292999972, 4.722115847000055 ], [ -74.096935438999935, 4.72212520100004 ], [ -74.096946581999987, 4.722134560000029 ], [ -74.096957720999967, 4.722143925000069 ], [ -74.096968853999954, 4.722153295000055 ], [ -74.096979980999947, 4.722162673000071 ], [ -74.096991100999958, 4.722172060000048 ], [ -74.097002212999939, 4.722181456000044 ], [ -74.097013315999959, 4.722190863000037 ], [ -74.097024408999971, 4.722200281000028 ], [ -74.097035491999975, 4.722209711000062 ], [ -74.097046562999935, 4.722219156000051 ], [ -74.097057620999976, 4.722228615000063 ], [ -74.097068665999984, 4.722238090000076 ], [ -74.09707969699997, 4.722247581000033 ], [ -74.097090712999943, 4.722257091000074 ], [ -74.097101711999983, 4.722266619000038 ], [ -74.097112694999964, 4.722276167000075 ], [ -74.097123658999976, 4.72228573600006 ], [ -74.097134604999951, 4.72229532700004 ], [ -74.097145529999977, 4.722304940000072 ], [ -74.097156434999988, 4.72231457700002 ], [ -74.097167317999947, 4.722324240000034 ], [ -74.097178177999979, 4.722333928000069 ], [ -74.09718901399998, 4.722343642000055 ], [ -74.097199824999961, 4.722353385000076 ], [ -74.09721061099998, 4.722363156000029 ], [ -74.097221369999943, 4.722372957000061 ], [ -74.097232100999975, 4.722382788000061 ], [ -74.097351093999976, 4.722495808000076 ], [ -74.097466297999972, 4.722612713000046 ], [ -74.097577586999989, 4.722733375000075 ], [ -74.097684837999964, 4.72285766300007 ], [ -74.097787934999985, 4.722985441000048 ], [ -74.097796873999982, 4.722996936000072 ], [ -74.097805779999987, 4.723008457000049 ], [ -74.097814654999979, 4.723020002000055 ], [ -74.097823498999958, 4.723031571000035 ], [ -74.097832313999959, 4.723043162000067 ], [ -74.097841099999982, 4.723054775000037 ], [ -74.09784985899995, 4.723066409000069 ], [ -74.097858591999966, 4.72307806300006 ], [ -74.097867298999972, 4.72308973600002 ], [ -74.097875981999948, 4.723101427000074 ], [ -74.09788464199994, 4.723113136000052 ], [ -74.097893278999948, 4.723124860000041 ], [ -74.097901895999939, 4.723136601000022 ], [ -74.097910492999972, 4.723148356000024 ], [ -74.097919070999978, 4.723160125000049 ], [ -74.097927630999948, 4.723171906000061 ], [ -74.097936173999983, 4.72318370000005 ], [ -74.09794470199995, 4.723195506000025 ], [ -74.097953215999951, 4.723207322000064 ], [ -74.097961715999986, 4.723219147000066 ], [ -74.097970203999978, 4.723230982000075 ], [ -74.097978679999983, 4.723242824000067 ], [ -74.097987146999969, 4.723254674000032 ], [ -74.097995604999937, 4.723266530000046 ], [ -74.098004053999944, 4.723278392000054 ], [ -74.098012496999957, 4.723290259000066 ], [ -74.098020934999965, 4.723302129000047 ], [ -74.09802936799997, 4.723314003000041 ], [ -74.09803779799995, 4.723325879000072 ], [ -74.098046224999962, 4.723337757000024 ], [ -74.098054650999984, 4.723349636000023 ], [ -74.102840810999965, 4.730096852000031 ], [ -74.102849237999976, 4.73010873100003 ], [ -74.102857662999952, 4.730120610000029 ], [ -74.10286608499996, 4.730132492000052 ], [ -74.102874504999988, 4.730144375000066 ], [ -74.102882919999956, 4.730156262000037 ], [ -74.102891328999988, 4.730168153000022 ], [ -74.10289973099998, 4.730180048000022 ], [ -74.102908125999988, 4.730191949000073 ], [ -74.102916511999979, 4.730203857000049 ], [ -74.102924886999972, 4.730215772000065 ], [ -74.102933251999957, 4.730227694000064 ], [ -74.102941603999966, 4.730239626000071 ], [ -74.102949941999952, 4.730251567000039 ], [ -74.102958265999973, 4.730263518000072 ], [ -74.102966573999936, 4.730275480000046 ], [ -74.102974864999965, 4.730287454000063 ], [ -74.102983138999946, 4.730299441000057 ], [ -74.102991391999979, 4.730311440000037 ], [ -74.102999625999985, 4.730323454000029 ], [ -74.10300783799994, 4.730335483000033 ], [ -74.103016026999967, 4.730347528000038 ], [ -74.103024191999964, 4.730359588000056 ], [ -74.103032332999987, 4.730371666000053 ], [ -74.103040446999955, 4.730383762000031 ], [ -74.103048533999981, 4.730395875000056 ], [ -74.103056591999973, 4.73040800900003 ], [ -74.103064619999941, 4.73042016100004 ], [ -74.103072617999942, 4.730432335000046 ], [ -74.103080582999951, 4.730444530000057 ], [ -74.103088514999968, 4.730456746000073 ], [ -74.103096411999957, 4.730468985000073 ], [ -74.103190606999988, 4.73062139600006 ], [ -74.103279260999955, 4.73077711600007 ], [ -74.103362259999983, 4.730935942000031 ], [ -74.103439495999964, 4.731097668000075 ], [ -74.103510867999944, 4.731262083000047 ], [ -74.103576283999985, 4.731428974000039 ], [ -74.103635656999984, 4.731598123000026 ], [ -74.103688911999939, 4.731769310000061 ], [ -74.103735977999975, 4.731942313000047 ], [ -74.103739530999974, 4.731956450000041 ], [ -74.103743043999941, 4.731970598000032 ], [ -74.103746516999934, 4.731984755000042 ], [ -74.103749953999966, 4.73199892100007 ], [ -74.103753353999934, 4.73201309600006 ], [ -74.103756719999978, 4.732027280000068 ], [ -74.103760051999984, 4.732041471000059 ], [ -74.103763352999977, 4.732055670000022 ], [ -74.103766621999966, 4.732069876000025 ], [ -74.103769861999979, 4.732084089000068 ], [ -74.103773072999957, 4.732098308000047 ], [ -74.103776257999982, 4.73211253300002 ], [ -74.103779417999988, 4.732126764000043 ], [ -74.103782552999974, 4.732141001000059 ], [ -74.103785664999975, 4.732155242000033 ], [ -74.103788755999972, 4.732169488000068 ], [ -74.103791826999952, 4.73218373900005 ], [ -74.103794878999963, 4.732197994000046 ], [ -74.103797912999937, 4.732212252000068 ], [ -74.103800931999956, 4.732226514000047 ], [ -74.103803934999974, 4.732240779000051 ], [ -74.103806924999958, 4.732255047000024 ], [ -74.103809902999956, 4.732269317000032 ], [ -74.103812870999946, 4.732283590000065 ], [ -74.103815828999984, 4.732297864000031 ], [ -74.103818777999948, 4.732312140000033 ], [ -74.103821720999974, 4.732326418000071 ], [ -74.10382465899994, 4.732340697000041 ], [ -74.103827591999959, 4.732354976000067 ], [ -74.103830522999942, 4.732369257000073 ], [ -74.103833452999936, 4.732383537000032 ], [ -74.10592315699995, 4.742570777000026 ], [ -74.105925206999984, 4.742580773000043 ], [ -74.105927256999962, 4.742590770000049 ], [ -74.10592930699994, 4.742600766000066 ], [ -74.105931353999949, 4.742610763000073 ], [ -74.105933399999969, 4.742620761000069 ], [ -74.105935443999954, 4.742630758000075 ], [ -74.10593748499997, 4.742640757000061 ], [ -74.105939522999961, 4.742650756000046 ], [ -74.105941556999937, 4.742660755000031 ], [ -74.105943586999956, 4.742670756000052 ], [ -74.10594561299996, 4.742680757000073 ], [ -74.105947632999971, 4.742690760000073 ], [ -74.105949647999978, 4.742700764000062 ], [ -74.105951657999981, 4.742710768000052 ], [ -74.105953659999955, 4.74272077400002 ], [ -74.105955655999935, 4.742730782000024 ], [ -74.105957644999989, 4.742740791000074 ], [ -74.105959625999958, 4.742750801000057 ], [ -74.105961598999954, 4.742760813000075 ], [ -74.105963562999989, 4.742770827000072 ], [ -74.105965517999948, 4.742780843000048 ], [ -74.105967463999946, 4.742790860000071 ], [ -74.105969399999935, 4.742800880000061 ], [ -74.105971324999985, 4.742810901000041 ], [ -74.105973238999979, 4.742820924000057 ], [ -74.105975141999977, 4.742830950000041 ], [ -74.105977032999988, 4.742840978000061 ], [ -74.105978911999955, 4.742851008000059 ], [ -74.105980777999946, 4.742861041000026 ], [ -74.105982629999971, 4.742871076000029 ], [ -74.105984469999953, 4.742881114000056 ], [ -74.106018164999966, 4.743081612000026 ], [ -74.106046227999968, 4.74328298100005 ], [ -74.106068636999964, 4.743485062000047 ], [ -74.106085373999974, 4.743687695000062 ], [ -74.106096426999954, 4.743890720000024 ], [ -74.106101784999964, 4.744093976000045 ], [ -74.106101903999956, 4.744104182000058 ], [ -74.106102008999983, 4.744114387000025 ], [ -74.106102100999976, 4.744124592000048 ], [ -74.106102178999947, 4.744134798000061 ], [ -74.106102244999988, 4.744145003000028 ], [ -74.106102298999986, 4.744155209000041 ], [ -74.106102341999986, 4.744165415000055 ], [ -74.106102372999942, 4.744175621000068 ], [ -74.106102393999947, 4.744185827000024 ], [ -74.106102403999955, 4.744196032000048 ], [ -74.106102404999945, 4.744206238000061 ], [ -74.106102396999972, 4.744216444000074 ], [ -74.106102378999935, 4.74422665000003 ], [ -74.106102353999972, 4.744236856000043 ], [ -74.106102319999934, 4.744247061000067 ], [ -74.10610227899997, 4.744257267000023 ], [ -74.106102231999955, 4.744267473000036 ], [ -74.106102176999968, 4.744277679000049 ], [ -74.106102116999978, 4.744287884000073 ], [ -74.106102050999937, 4.744298090000029 ], [ -74.106101979999949, 4.744308295000053 ], [ -74.106101903999956, 4.744318501000066 ], [ -74.106101824999939, 4.744328707000022 ], [ -74.106101740999975, 4.744338912000046 ], [ -74.106101653999986, 4.744349118000059 ], [ -74.10610156499996, 4.744359323000026 ], [ -74.106101472999967, 4.74436952800005 ], [ -74.106101378999938, 4.744379734000063 ], [ -74.106101283999976, 4.74438993900003 ], [ -74.106101187999968, 4.744400145000043 ], [ -74.10610109199996, 4.744410350000067 ], [ -74.106060013999979, 4.748752492000051 ], [ -74.10605983499994, 4.748771444000056 ], [ -74.106059658999982, 4.74879039700005 ], [ -74.106059488999961, 4.748809350000045 ], [ -74.106059326999969, 4.748828303000039 ], [ -74.106059176999963, 4.748847256000033 ], [ -74.10605904099998, 4.748866209000028 ], [ -74.106058920999942, 4.748885163000068 ], [ -74.106058821999966, 4.748904116000062 ], [ -74.106058744999984, 4.748923070000046 ], [ -74.106058693999955, 4.748942023000041 ], [ -74.106058671999961, 4.748960977000024 ], [ -74.106058679999933, 4.748979931000065 ], [ -74.106058722999933, 4.748998884000059 ], [ -74.106058802999939, 4.749017838000043 ], [ -74.106058921999988, 4.749036791000037 ], [ -74.10605908399998, 4.749055744000032 ], [ -74.106059290999951, 4.749074697000026 ], [ -74.106059546999973, 4.749093649000031 ], [ -74.106059853999966, 4.749112600000046 ], [ -74.106060213999967, 4.749131550000072 ], [ -74.106060631999981, 4.749150499000052 ], [ -74.106061108999938, 4.749169447000043 ], [ -74.106061647999979, 4.749188393000054 ], [ -74.106062252999948, 4.74920733700003 ], [ -74.106062925999936, 4.749226279000027 ], [ -74.106063669999969, 4.749245218000056 ], [ -74.106064487999959, 4.74926415300007 ], [ -74.10606538199994, 4.749283086000048 ], [ -74.106066354999939, 4.749302014000023 ], [ -74.10606741099997, 4.749320938000039 ], [ -74.106068551999954, 4.749339858000042 ], [ -74.106082585999957, 4.749508104000029 ], [ -74.106103565999945, 4.749675622000041 ], [ -74.106131457999936, 4.749842122000075 ], [ -74.106166211999948, 4.750007317000041 ], [ -74.106207769999969, 4.750170923000042 ], [ -74.106256058999975, 4.750332658000048 ], [ -74.106310995999934, 4.750492244000043 ], [ -74.106372486999987, 4.750649405000047 ], [ -74.10644042499996, 4.750803870000027 ], [ -74.106514693999941, 4.750955374000057 ], [ -74.106595165999977, 4.751103656000055 ], [ -74.106681701999946, 4.751248460000056 ], [ -74.106774152999947, 4.751389537000023 ], [ -74.106872359999954, 4.751526643000034 ], [ -74.106976152999948, 4.751659543000073 ], [ -74.107085353999935, 4.751788007000073 ], [ -74.10719977499997, 4.751911815000028 ], [ -74.107319217999986, 4.752030752000053 ], [ -74.107443477999936, 4.752144614000031 ], [ -74.10757234099998, 4.752253206000034 ], [ -74.107705583999973, 4.752356339000073 ], [ -74.10784297899994, 4.752453836000029 ], [ -74.107984287999955, 4.752545529000031 ], [ -74.108129267999971, 4.752631260000044 ], [ -74.108145759999957, 4.752640506000034 ], [ -74.108162293999953, 4.752649676000033 ], [ -74.108178867999982, 4.752658774000054 ], [ -74.108195479999949, 4.752667803000065 ], [ -74.108212127999934, 4.752676763000068 ], [ -74.108228810999947, 4.752685658000075 ], [ -74.108245526999951, 4.752694490000067 ], [ -74.108262273999969, 4.752703262000068 ], [ -74.108279051999943, 4.752711975000068 ], [ -74.108295858999952, 4.752720633000024 ], [ -74.10831269199997, 4.752729238000029 ], [ -74.10832955099994, 4.752737791000072 ], [ -74.108346434999987, 4.752746297000044 ], [ -74.108363341999961, 4.752754756000058 ], [ -74.108380269999941, 4.752763172000073 ], [ -74.108397217999936, 4.752771548000055 ], [ -74.108414183999969, 4.752779885000052 ], [ -74.108431168999971, 4.752788186000032 ], [ -74.108448168999985, 4.752796454000077 ], [ -74.108465184999943, 4.752804691000051 ], [ -74.108482212999945, 4.752812899000048 ], [ -74.10849925399998, 4.752821082000025 ], [ -74.108516306999945, 4.752829242000075 ], [ -74.108533368999986, 4.752837382000052 ], [ -74.108550438999941, 4.75284550300006 ], [ -74.108567516999983, 4.752853609000056 ], [ -74.108584600999961, 4.752861702000075 ], [ -74.108601688999954, 4.75286978500003 ], [ -74.108618780999961, 4.752877860000069 ], [ -74.108635875999937, 4.752885929000058 ], [ -74.108652971999959, 4.752893997000058 ], [ -74.110854964999987, 4.753933004000032 ], [ -74.110865485999966, 4.753937968000059 ], [ -74.110876006999945, 4.753942932000029 ], [ -74.11088652799998, 4.753947894000021 ], [ -74.110897050999938, 4.753952855000023 ], [ -74.110907573999953, 4.753957813000056 ], [ -74.110918098999946, 4.753962768000065 ], [ -74.110928625999975, 4.753967720000048 ], [ -74.110939153999936, 4.753972668000074 ], [ -74.11094968499998, 4.753977610000049 ], [ -74.110960217999946, 4.753982548000067 ], [ -74.110970753999936, 4.753987480000035 ], [ -74.110981291999963, 4.753992405000076 ], [ -74.110991834999936, 4.753997324000068 ], [ -74.111002379999945, 4.754002234000041 ], [ -74.111012929999958, 4.754007137000031 ], [ -74.11102348299994, 4.754012031000059 ], [ -74.111034040999982, 4.754016915000022 ], [ -74.111044602999982, 4.754021789000035 ], [ -74.111055170999975, 4.754026653000039 ], [ -74.111065742999983, 4.754031505000057 ], [ -74.111076320999985, 4.754036346000021 ], [ -74.111086903999933, 4.754041174000065 ], [ -74.111097492999988, 4.754045990000066 ], [ -74.11110808799998, 4.754050791000054 ], [ -74.111118689999955, 4.754055579000067 ], [ -74.11112929799998, 4.754060352000067 ], [ -74.111139913999978, 4.754065110000056 ], [ -74.111150535999968, 4.754069851000054 ], [ -74.111161164999942, 4.75407457600005 ], [ -74.111171802999934, 4.754079284000056 ], [ -74.111182446999976, 4.754083974000025 ], [ -74.111364677999973, 4.754160910000053 ], [ -74.111549073999981, 4.75423246400004 ], [ -74.111735477999957, 4.754298576000053 ], [ -74.111923728999955, 4.754359190000059 ], [ -74.112113667999949, 4.754414252000061 ], [ -74.112305130999971, 4.754463717000021 ], [ -74.112497953999934, 4.754507541000066 ], [ -74.112691971999936, 4.754545688000064 ], [ -74.11288701999996, 4.754578124000034 ], [ -74.112898517999952, 4.754579853000052 ], [ -74.112910018999969, 4.754581563000045 ], [ -74.112921521999965, 4.754583254000067 ], [ -74.112933027999986, 4.754584927000053 ], [ -74.112944536999976, 4.754586584000037 ], [ -74.112956047999944, 4.754588223000042 ], [ -74.112967560999948, 4.754589846000044 ], [ -74.112979075999988, 4.754591454000035 ], [ -74.11299059299995, 4.754593047000071 ], [ -74.113002112999936, 4.754594627000074 ], [ -74.113013633999969, 4.754596192000065 ], [ -74.113025155999935, 4.754597745000069 ], [ -74.113036680999983, 4.75459928600003 ], [ -74.113048206999963, 4.75460081500006 ], [ -74.113059733999989, 4.754602333000037 ], [ -74.113071262999938, 4.754603841000062 ], [ -74.113082792999933, 4.754605339000022 ], [ -74.113094323999974, 4.754606828000021 ], [ -74.113105855999947, 4.754608309000048 ], [ -74.113117388999967, 4.754609782000045 ], [ -74.113128922999977, 4.75461124900005 ], [ -74.113140457999975, 4.754612708000025 ], [ -74.113151993999963, 4.754614162000053 ], [ -74.113163529999952, 4.754615611000077 ], [ -74.113175066999986, 4.75461705500004 ], [ -74.113186603999964, 4.754618496000035 ], [ -74.113198141999987, 4.754619933000072 ], [ -74.113209679999954, 4.754621368000073 ], [ -74.113221217999978, 4.754622801000039 ], [ -74.113232755999945, 4.754624232000026 ], [ -74.113244294999959, 4.75462566300007 ], [ -74.11852896399995, 4.755302809000057 ] ] ] } }
]
}
