{
"type": "FeatureCollection",
"name": "Troncal_Calle13",
"crs": { "type": "name", "properties": { "name": "urn:ogc:def:crs:OGC:1.3:CRS84" } },
"features": [
{ "type": "Feature", "properties": { "NOMBRE": "Troncal Calle 13", "TIPO": "Troncal TransMilenio (Proyecto IDU)", "ESTADO": "Licitacion / En Obras", "CORREDOR": "Avenida Centenario" }, "geometry": { "type": "LineString", "coordinates": [ [ -74.108456, 4.62829 ], [ -74.11452, 4.634365 ], [ -74.118275, 4.637402 ], [ -74.122031, 4.640011 ], [ -74.123683, 4.642257 ], [ -74.124327, 4.645508 ], [ -74.125185, 4.647454 ], [ -74.126537, 4.649036 ], [ -74.131943, 4.655046 ], [ -74.135499, 4.658973 ], [ -74.138579, 4.662451 ], [ -74.139611, 4.663343 ], [ -74.142812, 4.664614 ], [ -74.146802, 4.666111 ], [ -74.150778, 4.667999 ], [ -74.151636, 4.669731 ], [ -74.152837, 4.673773 ], [ -74.153996, 4.677451 ], [ -74.154232, 4.678285 ], [ -74.154983, 4.679911 ], [ -74.156287, 4.682282 ], [ -74.157596, 4.684635 ], [ -74.158411, 4.685747 ], [ -74.159935, 4.687201 ], [ -74.167638, 4.693104 ], [ -74.169977, 4.695221 ] ] } }
]
}
