{
"type": "FeatureCollection",
"name": "Troncal_Av68",
"crs": { "type": "name", "properties": { "name": "urn:ogc:def:crs:OGC:1.3:CRS84" } },
"features": [
{ "type": "Feature", "properties": { "name": "Avenida Calle 100" }, "geometry": { "type": "LineString", "coordinates": [ [ -74.0557066, 4.6867183 ], [ -74.0579454, 4.6871987 ], [ -74.0580724, 4.6872276 ], [ -74.0581835, 4.6872574 ], [ -74.0584529, 4.6873514 ] ] } },
{ "type": "Feature", "properties": { "name": "Avenida Calle 100" }, "geometry": { "type": "LineString", "coordinates": [ [ -74.0585521, 4.6870761 ], [ -74.0584041, 4.6870629 ], [ -74.0583268, 4.6870561 ], [ -74.0581713, 4.687036 ], [ -74.057993, 4.6870018 ], [ -74.0561724, 4.6866305 ], [ -74.0560299, 4.6865957 ], [ -74.0557683, 4.6865178 ] ] } },
{ "type": "Feature", "properties": { "name": "Avenida Carrera 68" }, "geometry": { "type": "LineString", "coordinates": [ [ -74.1377665, 4.5948207 ], [ -74.1377513, 4.5949258 ], [ -74.1377314, 4.5950318 ], [ -74.137711, 4.5951159 ], [ -74.137684, 4.5952065 ] ] } },
{ "type": "Feature", "properties": { "name": "Avenida Carrera 68" }, "geometry": { "type": "LineString", "coordinates": [ [ -74.137826, 4.5952312 ], [ -74.1378278, 4.5951318 ], [ -74.1378329, 4.5950388 ], [ -74.1378371, 4.5949329 ], [ -74.1378446, 4.5948334 ] ] } },
{ "type": "Feature", "properties": { "name": "Avenida Calle 100" }, "geometry": { "type": "LineString", "coordinates": [ [ -74.0385013, 4.6800459 ], [ -74.0379636, 4.6797526 ] ] } },
{ "type": "Feature", "properties": { "name": "Avenida Calle 100" }, "geometry": { "type": "LineString", "coordinates": [ [ -74.0379636, 4.6797526 ], [ -74.0379215, 4.6797087 ], [ -74.0378886, 4.6796575 ], [ -74.0378661, 4.6796011 ], [ -74.0378549, 4.6795414 ], [ -74.0378553, 4.6794806 ], [ -74.0378675, 4.6794211 ], [ -74.0378908, 4.679365 ], [ -74.0379245, 4.6793144 ], [ -74.0379672, 4.6792711 ], [ -74.0380175, 4.6792368 ], [ -74.0380735, 4.6792128 ], [ -74.038133, 4.6791998 ] ] } },
{ "type": "Feature", "properties": { "name": "Avenida Calle 100" }, "geometry": { "type": "LineString", "coordinates": [ [ -74.0380082, 4.6804008 ], [ -74.03812, 4.6802842 ], [ -74.0381656, 4.680249 ], [ -74.0382075, 4.6802304 ], [ -74.0382519, 4.6802189 ], [ -74.0383082, 4.6802221 ], [ -74.038377, 4.6802316 ], [ -74.038426, 4.6802456 ], [ -74.0387459, 4.6803826 ], [ -74.039013, 4.6805085 ], [ -74.0393229, 4.6806719 ], [ -74.039599, 4.6808192 ], [ -74.0399288, 4.6809951 ], [ -74.0404138, 4.6812521 ], [ -74.0405848, 4.6813427 ], [ -74.0407257, 4.6814174 ], [ -74.0412537, 4.6816971 ], [ -74.0413065, 4.6817251 ] ] } },
{ "type": "Feature", "properties": { "name": "Avenida Calle 100" }, "geometry": { "type": "LineString", "coordinates": [ [ -74.0391063, 4.680363 ], [ -74.0395968, 4.6806703 ], [ -74.0400696, 4.6809448 ], [ -74.0404476, 4.6811651 ], [ -74.0405848, 4.6813427 ] ] } },
{ "type": "Feature", "properties": { "name": "Calle 100" }, "geometry": { "type": "LineString", "coordinates": [ [ -74.0778549, 4.6979387 ], [ -74.0776115, 4.6976138 ], [ -74.0773258, 4.6972259 ] ] } },
{ "type": "Feature", "properties": { "name": "Calle 100" }, "geometry": { "type": "LineString", "coordinates": [ [ -74.0717496, 4.6898287 ], [ -74.0724468, 4.6907907 ] ] } },
{ "type": "Feature", "properties": { "name": "Calle 100" }, "geometry": { "type": "LineString", "coordinates": [ [ -74.0751999, 4.6943483 ], [ -74.0752117, 4.6943645 ], [ -74.0755012, 4.6947643 ], [ -74.0757939, 4.6951484 ] ] } },
{ "type": "Feature", "properties": { "name": "Calle 100" }, "geometry": { "type": "LineString", "coordinates": [ [ -74.0745747, 4.693306 ], [ -74.0745181, 4.6932823 ], [ -74.0740921, 4.6927574 ], [ -74.0738505, 4.6924324 ], [ -74.073625, 4.692129 ], [ -74.0735881, 4.6920772 ], [ -74.0731904, 4.6915191 ], [ -74.0725886, 4.6906904 ] ] } },
{ "type": "Feature", "properties": { "name": "Avenida Calle 100" }, "geometry": { "type": "LineString", "coordinates": [ [ -74.0501119, 4.6854892 ], [ -74.0498679, 4.6854357 ], [ -74.0496037, 4.6853715 ], [ -74.0493819, 4.6853079 ], [ -74.0491789, 4.6852442 ], [ -74.0489794, 4.6851784 ], [ -74.0487907, 4.6851126 ], [ -74.0485768, 4.6850317 ], [ -74.0484283, 4.6849702 ], [ -74.0482852, 4.6849088 ], [ -74.0480582, 4.6848074 ], [ -74.0477716, 4.6846711 ], [ -74.0465117, 4.6840523 ] ] } },
{ "type": "Feature", "properties": { "name": "Avenida Calle 100" }, "geometry": { "type": "LineString", "coordinates": [ [ -74.0387627, 4.6789935 ], [ -74.0386956, 4.6790357 ], [ -74.0386258, 4.6790732 ], [ -74.0385332, 4.6791138 ], [ -74.0384375, 4.679146 ], [ -74.0383393, 4.6791697 ], [ -74.0382393, 4.6791846 ], [ -74.038133, 4.6791998 ] ] } },
{ "type": "Feature", "properties": { "name": "Avenida Calle 100" }, "geometry": { "type": "LineString", "coordinates": [ [ -74.0411757, 4.6812902 ], [ -74.040921, 4.6812616 ], [ -74.0406889, 4.6811398 ] ] } },
{ "type": "Feature", "properties": { "name": "Avenida Calle 100" }, "geometry": { "type": "LineString", "coordinates": [ [ -74.0416216, 4.6815299 ], [ -74.0414939, 4.6814625 ], [ -74.0414576, 4.6814434 ], [ -74.0411757, 4.6812902 ], [ -74.0406917, 4.6810277 ], [ -74.0405126, 4.6809305 ], [ -74.0401863, 4.6807543 ], [ -74.0395391, 4.680406 ], [ -74.0394543, 4.6803606 ], [ -74.0391789, 4.6802132 ], [ -74.0387077, 4.6799338 ], [ -74.038663, 4.6799033 ], [ -74.0386261, 4.679872 ], [ -74.0385993, 4.6798358 ], [ -74.0385819, 4.6797943 ], [ -74.0385728, 4.6797567 ], [ -74.0385668, 4.6797177 ], [ -74.0385668, 4.6796882 ] ] } },
{ "type": "Feature", "properties": { "name": "Avenida Calle 100" }, "geometry": { "type": "LineString", "coordinates": [ [ -74.0462614, 4.6841736 ], [ -74.0479376, 4.6849808 ], [ -74.0481778, 4.6850909 ], [ -74.0483395, 4.6851598 ], [ -74.0485049, 4.6852277 ], [ -74.0486805, 4.6852969 ], [ -74.0490058, 4.6854137 ], [ -74.049241, 4.6854894 ], [ -74.0494354, 4.6855453 ], [ -74.0495977, 4.6855852 ], [ -74.0498312, 4.6856465 ] ] } },
{ "type": "Feature", "properties": { "name": "Calle 100" }, "geometry": { "type": "LineString", "coordinates": [ [ -74.0724468, 4.6907907 ], [ -74.0725007, 4.6908646 ], [ -74.0726233, 4.6910361 ], [ -74.0733652, 4.6920556 ], [ -74.0733762, 4.6921087 ], [ -74.0733678, 4.6921536 ] ] } },
{ "type": "Feature", "properties": { "name": "Calle 100" }, "geometry": { "type": "LineString", "coordinates": [ [ -74.0725886, 4.6906904 ], [ -74.072376, 4.6904093 ], [ -74.0723058, 4.690314 ], [ -74.0719191, 4.6898053 ], [ -74.0718687, 4.6897516 ], [ -74.0717931, 4.6896856 ] ] } },
{ "type": "Feature", "properties": { "name": "Calle 100" }, "geometry": { "type": "LineString", "coordinates": [ [ -74.0551863, 4.686989 ], [ -74.0552713, 4.6870029 ], [ -74.0554179, 4.6870271 ], [ -74.0555487, 4.6870486 ] ] } },
{ "type": "Feature", "properties": { "name": "Avenida Calle 100" }, "geometry": { "type": "LineString", "coordinates": [ [ -74.038133, 4.6791998 ], [ -74.0381906, 4.6792002 ], [ -74.0382418, 4.6792101 ], [ -74.0382891, 4.6792319 ], [ -74.0383297, 4.6792644 ], [ -74.0383614, 4.6793057 ], [ -74.0383822, 4.6793533 ], [ -74.0383911, 4.6794055 ], [ -74.0383821, 4.6794765 ], [ -74.0383671, 4.6795442 ] ] } },
{ "type": "Feature", "properties": { "name": "Avenida Calle 100" }, "geometry": { "type": "LineString", "coordinates": [ [ -74.0385013, 4.6800459 ], [ -74.0391063, 4.680363 ] ] } },
{ "type": "Feature", "properties": { "name": "Avenida Calle 100" }, "geometry": { "type": "LineString", "coordinates": [ [ -74.0426088, 4.6820659 ], [ -74.0416216, 4.6815299 ] ] } },
{ "type": "Feature", "properties": { "name": "Calle 100" }, "geometry": { "type": "LineString", "coordinates": [ [ -74.0751476, 4.6942712 ], [ -74.0751999, 4.6943483 ] ] } },
{ "type": "Feature", "properties": { "name": "Avenida Carrera 68" }, "geometry": { "type": "LineString", "coordinates": [ [ -74.1042273, 4.652407 ], [ -74.1037467, 4.6530662 ], [ -74.1032019, 4.6537747 ], [ -74.1026032, 4.6545343 ] ] } },
{ "type": "Feature", "properties": { "name": "Avenida Carrera 68" }, "geometry": { "type": "LineString", "coordinates": [ [ -74.1027445, 4.6546951 ], [ -74.1039042, 4.6531973 ], [ -74.1044094, 4.6525448 ] ] } },
{ "type": "Feature", "properties": { "name": "Avenida Calle 100" }, "geometry": { "type": "LineString", "coordinates": [ [ -74.0401704, 4.6808731 ], [ -74.0396307, 4.6806106 ], [ -74.0391063, 4.680363 ] ] } },
{ "type": "Feature", "properties": { "name": "Avenida Carrera 68" }, "geometry": { "type": "LineString", "coordinates": [ [ -74.137684, 4.5952065 ], [ -74.1376528, 4.5952759 ], [ -74.1376179, 4.5953433 ], [ -74.1375906, 4.5953998 ], [ -74.1375532, 4.5955 ], [ -74.1375391, 4.5955511 ], [ -74.1375301, 4.5955918 ], [ -74.1375249, 4.5956203 ], [ -74.1375174, 4.5956676 ], [ -74.1374812, 4.5958125 ], [ -74.1374521, 4.5958937 ], [ -74.1374137, 4.5959794 ], [ -74.1373599, 4.5960761 ], [ -74.1373, 4.5961638 ], [ -74.1369438, 4.5966751 ], [ -74.1368337, 4.5968235 ], [ -74.1367976, 4.5968722 ], [ -74.136787, 4.5968863 ], [ -74.1366884, 4.5970333 ], [ -74.1363427, 4.597663 ] ] } },
{ "type": "Feature", "properties": { "name": "Avenida Carrera 68" }, "geometry": { "type": "LineString", "coordinates": [ [ -74.102143, 4.655076 ], [ -74.1019954, 4.6552388 ], [ -74.1018399, 4.6554183 ], [ -74.1017915, 4.655474 ], [ -74.1016521, 4.6556451 ], [ -74.1015553, 4.6557747 ], [ -74.1013946, 4.65599 ], [ -74.1011666, 4.6562974 ], [ -74.1009332, 4.6566102 ], [ -74.100716, 4.6568669 ], [ -74.1006249, 4.6569584 ], [ -74.1005338, 4.6570498 ] ] } },
{ "type": "Feature", "properties": { "name": "Avenida Calle 100" }, "geometry": { "type": "LineString", "coordinates": [ [ -74.0385668, 4.6796882 ], [ -74.0385727, 4.679648 ], [ -74.0385875, 4.6796065 ], [ -74.0386108, 4.6795554 ], [ -74.0387079, 4.6793244 ] ] } },
{ "type": "Feature", "properties": { "name": "Avenida Carrera 68" }, "geometry": { "type": "LineString", "coordinates": [ [ -74.1374241, 4.5963486 ], [ -74.1375441, 4.596153 ], [ -74.1375883, 4.5960804 ], [ -74.1376192, 4.5960082 ], [ -74.1376576, 4.5959128 ], [ -74.1376862, 4.5958224 ], [ -74.1377091, 4.5957248 ], [ -74.1377332, 4.5956312 ], [ -74.1377479, 4.5955724 ], [ -74.1377667, 4.5955123 ], [ -74.1377935, 4.5954561 ], [ -74.1378378, 4.5953946 ], [ -74.1378789, 4.5953503 ], [ -74.137941, 4.5953012 ], [ -74.1380001, 4.5952636 ], [ -74.138051, 4.5952342 ], [ -74.1380886, 4.5952175 ], [ -74.1381342, 4.5952035 ], [ -74.1381744, 4.5951954 ], [ -74.1382321, 4.5951901 ], [ -74.1382978, 4.5951901 ], [ -74.1383555, 4.5951928 ], [ -74.1384346, 4.5952008 ], [ -74.1385057, 4.5952115 ], [ -74.1386559, 4.5952355 ], [ -74.1387792, 4.5952596 ], [ -74.1392269, 4.595354 ] ] } },
{ "type": "Feature", "properties": { "name": "Avenida Carrera 68" }, "geometry": { "type": "LineString", "coordinates": [ [ -74.1387459, 4.5950178 ], [ -74.1386066, 4.5949969 ], [ -74.1385102, 4.5949833 ], [ -74.1384049, 4.594972 ], [ -74.1383188, 4.5949717 ], [ -74.1382418, 4.5949841 ], [ -74.1381868, 4.5949948 ], [ -74.1381345, 4.5950109 ], [ -74.1380353, 4.595051 ], [ -74.1379857, 4.595075 ], [ -74.137932, 4.5951018 ], [ -74.137869, 4.5951472 ], [ -74.1378234, 4.595186 ], [ -74.1377859, 4.5952247 ], [ -74.1377416, 4.5952822 ], [ -74.1377101, 4.595329 ], [ -74.1376839, 4.5953745 ], [ -74.1376571, 4.5954239 ], [ -74.1376383, 4.5954707 ], [ -74.1376115, 4.5955616 ], [ -74.1375847, 4.5956819 ], [ -74.1375552, 4.5958049 ], [ -74.137523, 4.5958931 ], [ -74.1374828, 4.595984 ], [ -74.1374345, 4.5960749 ], [ -74.1373161, 4.5962654 ] ] } },
{ "type": "Feature", "properties": { "name": "Avenida Carrera 68" }, "geometry": { "type": "LineString", "coordinates": [ [ -74.126456, 4.618146 ], [ -74.1265016, 4.6179883 ], [ -74.126606, 4.6176402 ], [ -74.1270641, 4.6160608 ], [ -74.1271963, 4.6156143 ], [ -74.1272853, 4.6152993 ], [ -74.1273739, 4.6150116 ], [ -74.1275906, 4.6143157 ], [ -74.1278132, 4.6136011 ], [ -74.1278578, 4.6134577 ] ] } },
{ "type": "Feature", "properties": { "name": "Avenida Carrera 68" }, "geometry": { "type": "LineString", "coordinates": [ [ -74.1363427, 4.597663 ], [ -74.1361044, 4.5980185 ], [ -74.1359738, 4.5982129 ], [ -74.1358943, 4.5983353 ], [ -74.1358628, 4.5983838 ], [ -74.1358302, 4.5984339 ] ] } },
{ "type": "Feature", "properties": { "name": "Avenida Carrera 68" }, "geometry": { "type": "LineString", "coordinates": [ [ -74.1370644, 4.5970588 ], [ -74.1374241, 4.5963486 ] ] } },
{ "type": "Feature", "properties": { "name": "Avenida Carrera 68" }, "geometry": { "type": "LineString", "coordinates": [ [ -74.1101199, 4.645675 ], [ -74.1103546, 4.6454388 ], [ -74.1106017, 4.6451901 ], [ -74.1106466, 4.6451447 ], [ -74.1107148, 4.6450764 ], [ -74.111519, 4.6442598 ], [ -74.1116437, 4.6441382 ], [ -74.111672, 4.6441106 ], [ -74.1117387, 4.6440404 ], [ -74.1118139, 4.6439638 ], [ -74.1118597, 4.6439149 ], [ -74.1121654, 4.6435915 ], [ -74.1125892, 4.643129 ], [ -74.1128987, 4.6427982 ], [ -74.1129305, 4.6427643 ], [ -74.1130507, 4.6426497 ] ] } },
{ "type": "Feature", "properties": { "name": "Avenida Carrera 68" }, "geometry": { "type": "LineString", "coordinates": [ [ -74.1255063, 4.6209781 ], [ -74.1256101, 4.6207046 ] ] } },
{ "type": "Feature", "properties": { "name": "Avenida Carrera 68" }, "geometry": { "type": "LineString", "coordinates": [ [ -74.1208773, 4.6323603 ], [ -74.1205252, 4.6331997 ], [ -74.1203723, 4.6335713 ], [ -74.1203499, 4.633629 ], [ -74.120308, 4.6337371 ], [ -74.120257, 4.6338948 ], [ -74.1201913, 4.6341247 ], [ -74.1201822, 4.6341506 ], [ -74.1201529, 4.634234 ], [ -74.1201189, 4.6343306 ], [ -74.1200064, 4.6346012 ], [ -74.1199358, 4.6347708 ], [ -74.1197675, 4.6351754 ], [ -74.1197403, 4.6352402 ], [ -74.1194912, 4.6358357 ], [ -74.1194322, 4.6359667 ], [ -74.1193598, 4.6361119 ], [ -74.1193008, 4.6362127 ], [ -74.1192176, 4.6363383 ], [ -74.1191399, 4.6364479 ], [ -74.119054, 4.6365549 ], [ -74.1189521, 4.6366645 ], [ -74.1188629, 4.6367529 ], [ -74.1187556, 4.6368437 ], [ -74.1184677, 4.637069 ] ] } },
{ "type": "Feature", "properties": { "name": "Avenida Carrera 68" }, "geometry": { "type": "LineString", "coordinates": [ [ -74.1253862, 4.6205521 ], [ -74.1253065, 4.6208051 ] ] } },
{ "type": "Feature", "properties": { "name": "Avenida Carrera 68" }, "geometry": { "type": "LineString", "coordinates": [ [ -74.1071807, 4.6488641 ], [ -74.1076484, 4.6482773 ], [ -74.1077653, 4.6481307 ], [ -74.1078632, 4.6480079 ], [ -74.108579, 4.647209 ], [ -74.1086045, 4.6471805 ] ] } },
{ "type": "Feature", "properties": { "name": "Avenida Carrera 68" }, "geometry": { "type": "LineString", "coordinates": [ [ -74.1069551, 4.6487434 ], [ -74.1066843, 4.649073 ], [ -74.1061904, 4.649674 ] ] } },
{ "type": "Feature", "properties": { "name": "Avenida Carrera 68" }, "geometry": { "type": "LineString", "coordinates": [ [ -74.1089052, 4.6468677 ], [ -74.1090688, 4.6467046 ] ] } },
{ "type": "Feature", "properties": { "name": "Avenida Carrera 68" }, "geometry": { "type": "LineString", "coordinates": [ [ -74.1088746, 4.6465244 ], [ -74.1087196, 4.6466774 ] ] } },
{ "type": "Feature", "properties": { "name": "Avenida Carrera 68" }, "geometry": { "type": "LineString", "coordinates": [ [ -74.0881862, 4.6739776 ], [ -74.0883077, 4.6737635 ], [ -74.0883669, 4.6736593 ], [ -74.0884178, 4.6735699 ], [ -74.0885605, 4.6733193 ], [ -74.0888953, 4.6727317 ], [ -74.0889939, 4.6725724 ], [ -74.0891119, 4.6723933 ], [ -74.0893372, 4.6720695 ], [ -74.0893643, 4.6720308 ], [ -74.0894097, 4.671966 ], [ -74.0894557, 4.6718996 ], [ -74.0896303, 4.6716482 ], [ -74.0898201, 4.6713762 ], [ -74.0905408, 4.6703634 ], [ -74.0906202, 4.6702666 ], [ -74.0908842, 4.6699711 ], [ -74.0909705, 4.6698657 ], [ -74.0910112, 4.6698158 ], [ -74.0910582, 4.6697623 ], [ -74.0910803, 4.669737 ], [ -74.0911222, 4.6696888 ], [ -74.0911493, 4.6696578 ], [ -74.0912231, 4.6695715 ], [ -74.0912906, 4.6694851 ], [ -74.0915711, 4.6691118 ], [ -74.0918363, 4.6687557 ], [ -74.0921679, 4.6683211 ], [ -74.0922688, 4.6681655 ] ] } },
{ "type": "Feature", "properties": { "name": "Avenida Calle 100" }, "geometry": { "type": "LineString", "coordinates": [ [ -74.0432335, 4.6827413 ], [ -74.0432575, 4.6827546 ], [ -74.0433381, 4.6827995 ] ] } },
{ "type": "Feature", "properties": { "name": "Avenida Calle 100" }, "geometry": { "type": "LineString", "coordinates": [ [ -74.0455399, 4.6835561 ], [ -74.0447638, 4.6831906 ], [ -74.0446145, 4.6831203 ], [ -74.0441827, 4.6829145 ], [ -74.0440009, 4.6828229 ], [ -74.0438662, 4.6827514 ], [ -74.0437656, 4.6826965 ] ] } },
{ "type": "Feature", "properties": { "name": "Avenida Calle 100" }, "geometry": { "type": "LineString", "coordinates": [ [ -74.0549046, 4.6862719 ], [ -74.0547007, 4.6862123 ], [ -74.054658, 4.6862017 ], [ -74.0546042, 4.6861912 ], [ -74.0545468, 4.6861815 ], [ -74.054465, 4.6861677 ], [ -74.0540744, 4.6861019 ], [ -74.0523383, 4.6858092 ], [ -74.0523085, 4.6858042 ], [ -74.0521592, 4.685779 ] ] } },
{ "type": "Feature", "properties": { "name": "Avenida Calle 100" }, "geometry": { "type": "LineString", "coordinates": [ [ -74.0693339, 4.6898188 ], [ -74.0696119, 4.6898117 ], [ -74.0698039, 4.6897982 ], [ -74.0699546, 4.6897822 ], [ -74.0702242, 4.689743 ], [ -74.0705322, 4.6896884 ], [ -74.0708578, 4.6896102 ], [ -74.0708874, 4.6896013 ], [ -74.0710885, 4.689546 ], [ -74.0711232, 4.6895351 ], [ -74.0714265, 4.6894444 ], [ -74.0716654, 4.6893587 ], [ -74.0718261, 4.6893001 ], [ -74.0719498, 4.6892527 ] ] } },
{ "type": "Feature", "properties": { "name": "Avenida Calle 100" }, "geometry": { "type": "LineString", "coordinates": [ [ -74.0738807, 4.6879153 ], [ -74.0737866, 4.6879895 ], [ -74.0733925, 4.6883003 ], [ -74.0733067, 4.6883658 ], [ -74.0732128, 4.6884259 ], [ -74.0730733, 4.6885088 ], [ -74.0727917, 4.6886612 ], [ -74.0723747, 4.6888641 ], [ -74.0720957, 4.6889786 ], [ -74.0720041, 4.6890162 ] ] } },
{ "type": "Feature", "properties": { "name": "Avenida Carrera 68" }, "geometry": { "type": "LineString", "coordinates": [ [ -74.0773889, 4.6851744 ], [ -74.0770402, 4.6854177 ] ] } },
{ "type": "Feature", "properties": { "name": "Avenida Carrera 68" }, "geometry": { "type": "LineString", "coordinates": [ [ -74.0771851, 4.6856048 ], [ -74.077515, 4.6853241 ] ] } },
{ "type": "Feature", "properties": { "name": "Avenida Carrera 68" }, "geometry": { "type": "LineString", "coordinates": [ [ -74.0770402, 4.6854177 ], [ -74.0769963, 4.6854418 ], [ -74.0763, 4.6858374 ], [ -74.0761927, 4.6859176 ], [ -74.0760881, 4.6860112 ], [ -74.0759888, 4.6861101 ], [ -74.0759057, 4.686201 ], [ -74.0758064, 4.6863079 ], [ -74.0757775, 4.6863398 ], [ -74.0757045, 4.6864202 ], [ -74.0756434, 4.6864846 ], [ -74.0756133, 4.6865164 ], [ -74.0755328, 4.6865912 ], [ -74.0753918, 4.6867043 ], [ -74.0752879, 4.6867876 ], [ -74.0751046, 4.6869346 ], [ -74.0741344, 4.6877126 ], [ -74.0741016, 4.6877389 ], [ -74.073973, 4.687842 ] ] } },
{ "type": "Feature", "properties": { "name": "Avenida Carrera 68" }, "geometry": { "type": "LineString", "coordinates": [ [ -74.0741215, 4.6880755 ], [ -74.0742728, 4.687962 ], [ -74.0744589, 4.6878116 ], [ -74.0749776, 4.6874005 ], [ -74.0756603, 4.686867 ], [ -74.0760746, 4.6865431 ], [ -74.0762176, 4.6864371 ], [ -74.0765306, 4.6861929 ], [ -74.0767774, 4.6859791 ], [ -74.0771851, 4.6856048 ] ] } },
{ "type": "Feature", "properties": { "name": "Avenida Calle 100" }, "geometry": { "type": "LineString", "coordinates": [ [ -74.0653906, 4.6892657 ], [ -74.0654808, 4.6892851 ], [ -74.0659197, 4.6893795 ] ] } },
{ "type": "Feature", "properties": { "name": "Avenida Calle 100" }, "geometry": { "type": "LineString", "coordinates": [ [ -74.0650838, 4.6891841 ], [ -74.0652022, 4.6892156 ], [ -74.0653213, 4.6892473 ], [ -74.0653906, 4.6892657 ] ] } },
{ "type": "Feature", "properties": { "name": "Avenida Calle 100" }, "geometry": { "type": "LineString", "coordinates": [ [ -74.065324, 4.688942 ], [ -74.0652354, 4.6889166 ], [ -74.0651282, 4.6888859 ], [ -74.0650136, 4.688853 ] ] } },
{ "type": "Feature", "properties": { "name": "Avenida Calle 100" }, "geometry": { "type": "LineString", "coordinates": [ [ -74.0659503, 4.6891028 ], [ -74.0655008, 4.6889876 ], [ -74.0654155, 4.6889657 ], [ -74.065324, 4.688942 ] ] } },
{ "type": "Feature", "properties": { "name": "Avenida Calle 100" }, "geometry": { "type": "LineString", "coordinates": [ [ -74.064846, 4.6891208 ], [ -74.0649309, 4.6891434 ], [ -74.0650157, 4.6891661 ], [ -74.0650838, 4.6891841 ] ] } },
{ "type": "Feature", "properties": { "name": "Avenida Calle 100" }, "geometry": { "type": "LineString", "coordinates": [ [ -74.0650136, 4.688853 ], [ -74.0649484, 4.6888346 ], [ -74.0644797, 4.6887024 ], [ -74.0636651, 4.6884723 ], [ -74.0633612, 4.6883882 ], [ -74.0628471, 4.6882444 ], [ -74.0628047, 4.6882322 ], [ -74.0627578, 4.6882188 ], [ -74.0627013, 4.6882036 ] ] } },
{ "type": "Feature", "properties": { "name": "Avenida Calle 100" }, "geometry": { "type": "LineString", "coordinates": [ [ -74.060765, 4.6876535 ], [ -74.0607299, 4.6876443 ], [ -74.060459, 4.6875712 ], [ -74.0599788, 4.6874402 ], [ -74.0598936, 4.687417 ], [ -74.059783, 4.6873868 ], [ -74.0595338, 4.6873087 ], [ -74.0594476, 4.6872804 ], [ -74.0593517, 4.687249 ], [ -74.0592115, 4.687203 ], [ -74.0591842, 4.6871941 ], [ -74.0591261, 4.687175 ] ] } },
{ "type": "Feature", "properties": { "name": "Avenida Calle 100" }, "geometry": { "type": "LineString", "coordinates": [ [ -74.0433639, 4.6824748 ], [ -74.0432893, 4.6824336 ], [ -74.043236, 4.6824041 ], [ -74.0431203, 4.6823403 ], [ -74.0426088, 4.6820659 ] ] } },
{ "type": "Feature", "properties": { "name": "Avenida Calle 100" }, "geometry": { "type": "LineString", "coordinates": [ [ -74.0413065, 4.6817251 ], [ -74.0414636, 4.6818052 ], [ -74.0421633, 4.6821615 ], [ -74.042385, 4.6822726 ], [ -74.0425075, 4.6823357 ], [ -74.04275, 4.682465 ], [ -74.042922, 4.6825616 ], [ -74.0430238, 4.6826199 ], [ -74.0431089, 4.6826694 ], [ -74.0431616, 4.6826999 ], [ -74.0432335, 4.6827413 ] ] } },
{ "type": "Feature", "properties": { "name": "Avenida Calle 100" }, "geometry": { "type": "LineString", "coordinates": [ [ -74.0434095, 4.6828393 ], [ -74.0435377, 4.6829117 ], [ -74.0436221, 4.6829546 ], [ -74.0438313, 4.6830562 ], [ -74.0446386, 4.6834358 ], [ -74.0452707, 4.6837263 ] ] } },
{ "type": "Feature", "properties": { "name": "Avenida Calle 100" }, "geometry": { "type": "LineString", "coordinates": [ [ -74.0513055, 4.685667 ], [ -74.0508951, 4.6856148 ], [ -74.0506993, 4.6855881 ], [ -74.0504607, 4.6855498 ], [ -74.0501119, 4.6854892 ] ] } },
{ "type": "Feature", "properties": { "name": "Avenida Calle 100" }, "geometry": { "type": "LineString", "coordinates": [ [ -74.0521592, 4.685779 ], [ -74.0520729, 4.6857677 ], [ -74.0519901, 4.6857568 ] ] } },
{ "type": "Feature", "properties": { "name": "Avenida Calle 100" }, "geometry": { "type": "LineString", "coordinates": [ [ -74.0521036, 4.6860836 ], [ -74.0522638, 4.6861103 ], [ -74.0529227, 4.6862204 ], [ -74.0544799, 4.6864805 ] ] } },
{ "type": "Feature", "properties": { "name": "Avenida Calle 100" }, "geometry": { "type": "LineString", "coordinates": [ [ -74.0519398, 4.6860562 ], [ -74.0520194, 4.6860695 ], [ -74.0521036, 4.6860836 ] ] } },
{ "type": "Feature", "properties": { "name": "Avenida Carrera 68" }, "geometry": { "type": "LineString", "coordinates": [ [ -74.0857377, 4.6777043 ], [ -74.0856489, 4.6778504 ], [ -74.085423, 4.6782336 ], [ -74.0851947, 4.6786088 ], [ -74.0850632, 4.6788226 ], [ -74.084964, 4.6789616 ], [ -74.0848352, 4.6791194 ], [ -74.0847548, 4.6792102 ], [ -74.0846663, 4.6793038 ], [ -74.084646, 4.6793227 ], [ -74.0845912, 4.6793733 ], [ -74.0845134, 4.6794428 ], [ -74.0843337, 4.6795898 ], [ -74.0836148, 4.6801726 ], [ -74.0834971, 4.6802635 ], [ -74.0834595, 4.6802925 ], [ -74.0830087, 4.6806404 ], [ -74.0823359, 4.681155 ], [ -74.0816776, 4.6816503 ], [ -74.0804882, 4.6826077 ], [ -74.0798924, 4.6830986 ], [ -74.0794343, 4.6834849 ], [ -74.0786655, 4.684111 ] ] } },
{ "type": "Feature", "properties": { "name": "Avenida Carrera 68" }, "geometry": { "type": "LineString", "coordinates": [ [ -74.1320135, 4.604612 ], [ -74.1323631, 4.6040909 ], [ -74.1329796, 4.6031726 ], [ -74.13318, 4.6028933 ], [ -74.1332073, 4.6028554 ], [ -74.1332425, 4.6028063 ], [ -74.1337601, 4.6021245 ], [ -74.1339989, 4.6018038 ], [ -74.1340548, 4.6017257 ], [ -74.1341438, 4.6015979 ], [ -74.1344762, 4.6011211 ], [ -74.1345258, 4.6010515 ], [ -74.1345564, 4.6010052 ], [ -74.1345944, 4.6009393 ], [ -74.1346109, 4.6009103 ] ] } },
{ "type": "Feature", "properties": { "name": "Avenida Carrera 68" }, "geometry": { "type": "LineString", "coordinates": [ [ -74.1298191, 4.6076789 ], [ -74.1295435, 4.6080959 ], [ -74.1294813, 4.608178 ], [ -74.129419, 4.6082515 ], [ -74.1293706, 4.6083051 ], [ -74.1293026, 4.6083675 ], [ -74.1292453, 4.6084139 ], [ -74.1291037, 4.6084989 ], [ -74.1289596, 4.6085784 ], [ -74.1288268, 4.608648 ], [ -74.1287115, 4.6087188 ], [ -74.1286095, 4.6088003 ], [ -74.1285385, 4.6088699 ], [ -74.1284688, 4.6089594 ], [ -74.1284152, 4.6090409 ], [ -74.128376, 4.6091314 ], [ -74.1283476, 4.6092219 ] ] } },
{ "type": "Feature", "properties": { "name": "Avenida Carrera 68" }, "geometry": { "type": "LineString", "coordinates": [ [ -74.1278578, 4.6134577 ], [ -74.1278833, 4.6133775 ], [ -74.1279093, 4.6132954 ], [ -74.1279506, 4.6131652 ], [ -74.1281714, 4.6124691 ], [ -74.1282231, 4.6123034 ], [ -74.1283926, 4.6117476 ], [ -74.128409, 4.6116976 ], [ -74.128424, 4.6116519 ], [ -74.1284594, 4.6115439 ], [ -74.1285077, 4.6113843 ], [ -74.1287799, 4.6105608 ], [ -74.1288109, 4.6104975 ], [ -74.1288473, 4.6104329 ], [ -74.1289031, 4.6103552 ] ] } },
{ "type": "Feature", "properties": { "name": "Avenida Carrera 68" }, "geometry": { "type": "LineString", "coordinates": [ [ -74.1261228, 4.6182015 ], [ -74.1260973, 4.6182853 ], [ -74.1260116, 4.6185557 ], [ -74.1255503, 4.6200251 ], [ -74.1254509, 4.620347 ], [ -74.1253862, 4.6205521 ] ] } },
{ "type": "Feature", "properties": { "name": "Avenida Carrera 68" }, "geometry": { "type": "LineString", "coordinates": [ [ -74.1156849, 4.6396671 ], [ -74.1156092, 4.6397562 ] ] } },
{ "type": "Feature", "properties": { "name": "Avenida Carrera 68" }, "geometry": { "type": "LineString", "coordinates": [ [ -74.1156092, 4.6397562 ], [ -74.1155852, 4.6397845 ], [ -74.1155397, 4.639838 ], [ -74.1154592, 4.6399422 ], [ -74.1153921, 4.6400465 ], [ -74.1152995, 4.6401913 ], [ -74.1152581, 4.6402484 ], [ -74.1152178, 4.6403005 ], [ -74.1151266, 4.6404047 ], [ -74.1149469, 4.6405946 ], [ -74.1146599, 4.6408753 ], [ -74.1145204, 4.6410063 ], [ -74.114396, 4.6411189 ], [ -74.1143327, 4.641172 ], [ -74.1138713, 4.6415864 ], [ -74.1132544, 4.6421318 ], [ -74.1130774, 4.6422735 ], [ -74.1129455, 4.6423769 ], [ -74.1129057, 4.6424081 ], [ -74.1128315, 4.6424703 ], [ -74.1127743, 4.6425194 ], [ -74.1127091, 4.6425815 ], [ -74.1125946, 4.6426905 ], [ -74.1117121, 4.6435888 ], [ -74.1115878, 4.6437184 ], [ -74.1115688, 4.6437382 ], [ -74.1115533, 4.6437547 ], [ -74.1114927, 4.643817 ] ] } },
{ "type": "Feature", "properties": { "name": "Avenida Carrera 68" }, "geometry": { "type": "LineString", "coordinates": [ [ -74.1187455, 4.6371037 ], [ -74.118812, 4.6370416 ], [ -74.1189943, 4.6368812 ], [ -74.1190889, 4.6367982 ], [ -74.1191908, 4.6366966 ], [ -74.1192847, 4.636587 ], [ -74.1193947, 4.6364453 ], [ -74.119561, 4.636202 ], [ -74.1196575, 4.636063 ], [ -74.1198238, 4.6358063 ], [ -74.1199472, 4.6356218 ], [ -74.1199944, 4.6355439 ], [ -74.120035, 4.6354735 ], [ -74.1200894, 4.6353518 ], [ -74.1201725, 4.6351406 ], [ -74.1201871, 4.6350894 ], [ -74.1202127, 4.6349989 ], [ -74.1202718, 4.6347797 ], [ -74.1203328, 4.6344943 ], [ -74.1203611, 4.6344007 ], [ -74.1203847, 4.6343224 ], [ -74.120422, 4.6341862 ], [ -74.1205199, 4.6339189 ], [ -74.1205772, 4.6337794 ], [ -74.1205973, 4.6337304 ], [ -74.1208042, 4.6332264 ], [ -74.1214693, 4.6316605 ], [ -74.1218536, 4.6307788 ], [ -74.1219341, 4.6306131 ], [ -74.1221383, 4.6301581 ] ] } },
{ "type": "Feature", "properties": { "name": "Avenida Carrera 68" }, "geometry": { "type": "LineString", "coordinates": [ [ -74.1158156, 4.6399233 ], [ -74.1158955, 4.6398413 ] ] } },
{ "type": "Feature", "properties": { "name": "Avenida Carrera 68" }, "geometry": { "type": "LineString", "coordinates": [ [ -74.1130507, 4.6426497 ], [ -74.1131123, 4.6425835 ], [ -74.1135441, 4.6421505 ], [ -74.1137401, 4.6419612 ], [ -74.1140644, 4.6416479 ], [ -74.1142951, 4.6414447 ], [ -74.1145433, 4.6412251 ], [ -74.1146063, 4.6411693 ], [ -74.1147618, 4.6410196 ], [ -74.1149657, 4.6408165 ], [ -74.1150471, 4.6407313 ], [ -74.1151293, 4.6406454 ], [ -74.1153063, 4.6404582 ], [ -74.1153594, 4.6404009 ], [ -74.1154723, 4.6402788 ], [ -74.1155289, 4.6402176 ], [ -74.1156952, 4.6400465 ], [ -74.1157409, 4.6399999 ], [ -74.1157865, 4.6399532 ], [ -74.1158156, 4.6399233 ] ] } },
{ "type": "Feature", "properties": { "name": "Avenida Calle 100" }, "geometry": { "type": "LineString", "coordinates": [ [ -74.0721066, 4.68919 ], [ -74.0721293, 4.6891818 ], [ -74.0723679, 4.6890916 ], [ -74.0726541, 4.688971 ], [ -74.0726978, 4.6889526 ], [ -74.0729312, 4.6888403 ], [ -74.0731079, 4.6887486 ], [ -74.0733201, 4.6886238 ] ] } },
{ "type": "Feature", "properties": { "name": "Avenida Calle 100" }, "geometry": { "type": "LineString", "coordinates": [ [ -74.0720041, 4.6890162 ], [ -74.0719182, 4.6890498 ], [ -74.0718522, 4.6890758 ] ] } },
{ "type": "Feature", "properties": { "name": "Avenida Calle 100" }, "geometry": { "type": "LineString", "coordinates": [ [ -74.0718522, 4.6890758 ], [ -74.0715879, 4.6891655 ], [ -74.0712816, 4.6892627 ], [ -74.0711802, 4.6892911 ], [ -74.0709839, 4.6893455 ], [ -74.0708659, 4.6893712 ], [ -74.0706647, 4.689415 ], [ -74.0704887, 4.689445 ], [ -74.0704448, 4.6894525 ], [ -74.0701524, 4.6894899 ], [ -74.0698627, 4.6895166 ], [ -74.0698201, 4.6895193 ], [ -74.0695717, 4.6895353 ], [ -74.0694569, 4.6895404 ], [ -74.069285, 4.6895432 ], [ -74.0690948, 4.6895521 ], [ -74.0688127, 4.6895654 ], [ -74.0686574, 4.689573 ], [ -74.0685908, 4.6895667 ], [ -74.0683876, 4.6895616 ] ] } },
{ "type": "Feature", "properties": { "name": "Avenida Carrera 68" }, "geometry": { "type": "LineString", "coordinates": [ [ -74.1360661, 4.5985931 ], [ -74.1360986, 4.5985443 ], [ -74.1361706, 4.5984361 ], [ -74.1363715, 4.5981303 ], [ -74.1367644, 4.5975313 ], [ -74.136885, 4.5973474 ], [ -74.1370337, 4.5971083 ], [ -74.1370644, 4.5970588 ] ] } },
{ "type": "Feature", "properties": { "name": "Avenida Carrera 68" }, "geometry": { "type": "LineString", "coordinates": [ [ -74.1358302, 4.5984339 ], [ -74.1357045, 4.5986276 ], [ -74.1356049, 4.5987884 ], [ -74.1355219, 4.5989531 ], [ -74.1354689, 4.5990767 ], [ -74.1354149, 4.5992077 ], [ -74.1353525, 4.5993432 ], [ -74.1353166, 4.5994088 ], [ -74.1352753, 4.5994743 ], [ -74.1351674, 4.5996284 ], [ -74.1350903, 4.5997384 ], [ -74.1349063, 4.599999 ], [ -74.134641, 4.6003751 ], [ -74.13452, 4.6005466 ], [ -74.1344727, 4.600618 ], [ -74.1344149, 4.6007033 ], [ -74.1344138, 4.6007069 ], [ -74.1343837, 4.6007525 ] ] } },
{ "type": "Feature", "properties": { "name": "Avenida Carrera 68" }, "geometry": { "type": "LineString", "coordinates": [ [ -74.1253065, 4.6208051 ], [ -74.1252798, 4.6208898 ], [ -74.1251336, 4.6213536 ], [ -74.1249843, 4.6218233 ], [ -74.1249234, 4.6220145 ], [ -74.1248456, 4.6222738 ], [ -74.1247598, 4.6225691 ], [ -74.1247088, 4.6227444 ], [ -74.1246784, 4.6228545 ], [ -74.124615, 4.6230839 ], [ -74.1245833, 4.6231891 ], [ -74.1245747, 4.6232176 ], [ -74.1245428, 4.6233041 ], [ -74.1245358, 4.6233232 ], [ -74.1244548, 4.6235144 ], [ -74.1243342, 4.6237989 ] ] } },
{ "type": "Feature", "properties": { "name": "Avenida Carrera 68" }, "geometry": { "type": "LineString", "coordinates": [ [ -74.1346109, 4.6009103 ], [ -74.1346239, 4.6008864 ], [ -74.1346274, 4.6008787 ], [ -74.1347284, 4.6006942 ], [ -74.1348277, 4.6005017 ], [ -74.1349055, 4.6003653 ], [ -74.1350603, 4.6001278 ], [ -74.1352944, 4.5997691 ], [ -74.135829, 4.598949 ], [ -74.1359755, 4.5987291 ], [ -74.1360327, 4.5986432 ], [ -74.1360661, 4.5985931 ] ] } },
{ "type": "Feature", "properties": { "name": "Avenida Calle 100" }, "geometry": { "type": "LineString", "coordinates": [ [ -74.0627013, 4.6882036 ], [ -74.0625331, 4.6881566 ], [ -74.0624021, 4.6881199 ], [ -74.061851, 4.6879642 ], [ -74.0614728, 4.6878519 ], [ -74.0609985, 4.6877187 ], [ -74.0609492, 4.6877049 ], [ -74.0609104, 4.6876941 ], [ -74.060765, 4.6876535 ] ] } },
{ "type": "Feature", "properties": { "name": "Avenida Calle 100" }, "geometry": { "type": "LineString", "coordinates": [ [ -74.0627578, 4.6885308 ], [ -74.0628058, 4.6885444 ], [ -74.0641312, 4.6889188 ], [ -74.064846, 4.6891208 ] ] } },
{ "type": "Feature", "properties": { "name": "Avenida Calle 100" }, "geometry": { "type": "LineString", "coordinates": [ [ -74.0683876, 4.6895616 ], [ -74.06825, 4.6895572 ], [ -74.0681461, 4.6895524 ], [ -74.0680087, 4.6895401 ], [ -74.0678077, 4.6895095 ], [ -74.0677771, 4.6895049 ], [ -74.0674271, 4.6894461 ], [ -74.0672005, 4.6894022 ], [ -74.0668569, 4.6893274 ], [ -74.0663312, 4.6891964 ], [ -74.0659503, 4.6891028 ] ] } },
{ "type": "Feature", "properties": { "name": "Avenida Carrera 68" }, "geometry": { "type": "LineString", "coordinates": [ [ -74.1004285, 4.6571555 ], [ -74.1003142, 4.6572704 ], [ -74.1002437, 4.657341 ], [ -74.1001063, 4.6574789 ], [ -74.100024, 4.657568 ], [ -74.0999467, 4.6576637 ], [ -74.0996423, 4.658051 ], [ -74.0993204, 4.6584707 ], [ -74.0991863, 4.6586418 ], [ -74.0991005, 4.6587701 ], [ -74.0989959, 4.6589386 ], [ -74.0989268, 4.6590502 ], [ -74.0988752, 4.6591337 ], [ -74.0987786, 4.6592834 ], [ -74.0986579, 4.6594492 ], [ -74.0980759, 4.6602164 ], [ -74.0973584, 4.6611467 ], [ -74.0970784, 4.6615142 ], [ -74.0968756, 4.6617803 ], [ -74.096661, 4.6620476 ], [ -74.0963955, 4.6623524 ], [ -74.0961782, 4.662609 ], [ -74.0959637, 4.6628684 ], [ -74.0955157, 4.6634431 ], [ -74.095379, 4.6636196 ], [ -74.0948344, 4.6643227 ], [ -74.0947593, 4.6644189 ] ] } },
{ "type": "Feature", "properties": { "name": "Avenida Carrera 68" }, "geometry": { "type": "LineString", "coordinates": [ [ -74.1005338, 4.6570498 ], [ -74.1004285, 4.6571555 ] ] } },
{ "type": "Feature", "properties": { "name": "Avenida Carrera 68" }, "geometry": { "type": "LineString", "coordinates": [ [ -74.1114927, 4.643817 ], [ -74.111428, 4.643886 ], [ -74.1111758, 4.6441382 ], [ -74.110591, 4.6447651 ], [ -74.1104343, 4.6449356 ], [ -74.110249, 4.6451373 ], [ -74.1101538, 4.6452409 ], [ -74.1100705, 4.6453288 ], [ -74.1098266, 4.6455858 ], [ -74.1091613, 4.6462417 ], [ -74.1089739, 4.6464265 ], [ -74.1088746, 4.6465244 ] ] } },
{ "type": "Feature", "properties": { "name": "Avenida Calle 100" }, "geometry": { "type": "LineString", "coordinates": [ [ -74.0584529, 4.6873514 ], [ -74.0585387, 4.6873862 ], [ -74.0586192, 4.6874129 ], [ -74.0587452, 4.6874477 ], [ -74.0588928, 4.6874851 ], [ -74.0590407, 4.6875154 ], [ -74.0590886, 4.6875252 ], [ -74.059212, 4.6875412 ], [ -74.0593138, 4.6875546 ], [ -74.0593508, 4.6875604 ], [ -74.0594158, 4.6875733 ], [ -74.0595419, 4.6876054 ], [ -74.0603892, 4.6878466 ], [ -74.0605016, 4.6878786 ], [ -74.0606095, 4.6879093 ], [ -74.0606779, 4.6879288 ], [ -74.0607155, 4.6879394 ] ] } },
{ "type": "Feature", "properties": { "name": "Avenida Carrera 68" }, "geometry": { "type": "LineString", "coordinates": [ [ -74.1312265, 4.6058052 ], [ -74.1318143, 4.6049099 ], [ -74.131841, 4.6048692 ] ] } },
{ "type": "Feature", "properties": { "name": "Avenida Carrera 68" }, "geometry": { "type": "LineString", "coordinates": [ [ -74.1244411, 4.6244563 ], [ -74.1247632, 4.6234359 ], [ -74.1248088, 4.6232771 ], [ -74.1248402, 4.6231679 ], [ -74.1251291, 4.6221629 ] ] } },
{ "type": "Feature", "properties": { "name": "Avenida Carrera 68" }, "geometry": { "type": "LineString", "coordinates": [ [ -74.1017652, 4.6560366 ], [ -74.1019143, 4.6558835 ], [ -74.1020032, 4.6557872 ], [ -74.1020739, 4.6557096 ], [ -74.1021497, 4.6556164 ], [ -74.1022385, 4.6554851 ], [ -74.1023823, 4.6552523 ], [ -74.1024509, 4.6551515 ], [ -74.1026326, 4.6548691 ] ] } },
{ "type": "Feature", "properties": { "name": "Avenida Carrera 68" }, "geometry": { "type": "LineString", "coordinates": [ [ -74.0945673, 4.6650452 ], [ -74.0947137, 4.6649081 ], [ -74.0948612, 4.6647504 ], [ -74.0949686, 4.6646381 ], [ -74.0951348, 4.6644376 ], [ -74.0960688, 4.6632356 ], [ -74.0960988, 4.6631969 ], [ -74.0963097, 4.6629245 ], [ -74.0966315, 4.6624968 ], [ -74.0968702, 4.6621813 ], [ -74.0971787, 4.661775 ], [ -74.0973032, 4.6616115 ], [ -74.097409, 4.6614728 ], [ -74.0975072, 4.6613439 ], [ -74.0982809, 4.6603396 ], [ -74.0983489, 4.6602514 ], [ -74.0985228, 4.6600258 ], [ -74.0989195, 4.6594982 ], [ -74.0989825, 4.6594144 ], [ -74.0994072, 4.658863 ], [ -74.0995529, 4.6586664 ], [ -74.0996773, 4.6585009 ], [ -74.0997389, 4.6584199 ], [ -74.1002887, 4.6577222 ], [ -74.1003561, 4.6576408 ], [ -74.1004014, 4.6575886 ], [ -74.1004679, 4.6575159 ], [ -74.1005044, 4.6574766 ], [ -74.100541, 4.6574371 ], [ -74.1006504, 4.657319 ] ] } },
{ "type": "Feature", "properties": { "name": "Avenida 68" }, "geometry": { "type": "LineString", "coordinates": [ [ -74.1297386, 4.6093691 ], [ -74.1297307, 4.6089902 ], [ -74.1297353, 4.6088476 ], [ -74.129736, 4.6087952 ], [ -74.1297396, 4.6087216 ], [ -74.1297494, 4.6085225 ], [ -74.1297561, 4.6084623 ], [ -74.1297655, 4.6084102 ], [ -74.129803, 4.6082685 ], [ -74.1298433, 4.6081455 ], [ -74.1298871, 4.6080301 ], [ -74.1299309, 4.607927 ] ] } },
{ "type": "Feature", "properties": { "name": "Avenida Carrera 68" }, "geometry": { "type": "LineString", "coordinates": [ [ -74.1315161, 4.6048421 ], [ -74.1314558, 4.6049356 ], [ -74.1313539, 4.6050935 ], [ -74.1312912, 4.6051906 ], [ -74.1312472, 4.6052702 ], [ -74.1311742, 4.605405 ], [ -74.1310734, 4.605615 ], [ -74.1309761, 4.6058177 ], [ -74.1308853, 4.6059902 ], [ -74.13084, 4.606076 ], [ -74.1307455, 4.6062444 ], [ -74.1306507, 4.606393 ], [ -74.1305293, 4.6065832 ], [ -74.1304008, 4.6067805 ], [ -74.1301546, 4.6071607 ], [ -74.1298191, 4.6076789 ] ] } },
{ "type": "Feature", "properties": { "name": "Avenida Carrera 68" }, "geometry": { "type": "LineString", "coordinates": [ [ -74.0920329, 4.6680021 ], [ -74.0919465, 4.6681363 ], [ -74.0917768, 4.6683701 ], [ -74.0916507, 4.6685305 ], [ -74.0910298, 4.6693376 ], [ -74.0909554, 4.6694249 ], [ -74.0908072, 4.6695929 ], [ -74.0907671, 4.6696384 ], [ -74.0902093, 4.6703028 ], [ -74.0895421, 4.6711941 ], [ -74.0894929, 4.6712599 ], [ -74.0893715, 4.6714262 ], [ -74.0892752, 4.6715572 ], [ -74.0892416, 4.6716006 ], [ -74.0891789, 4.6716881 ] ] } },
{ "type": "Feature", "properties": { "name": "Avenida Carrera 68" }, "geometry": { "type": "LineString", "coordinates": [ [ -74.0947593, 4.6644189 ], [ -74.0946494, 4.6645552 ], [ -74.094526, 4.6646942 ], [ -74.0943892, 4.6648359 ], [ -74.0940338, 4.6651835 ], [ -74.0939305, 4.6652851 ], [ -74.0937777, 4.6654374 ], [ -74.0936623, 4.6655631 ], [ -74.0935577, 4.6656914 ], [ -74.0934343, 4.6658571 ], [ -74.0933512, 4.6659748 ], [ -74.0932546, 4.6661271 ], [ -74.0931205, 4.666333 ], [ -74.0927933, 4.6668356 ], [ -74.0923565, 4.6675203 ], [ -74.0920329, 4.6680021 ] ] } },
{ "type": "Feature", "properties": { "name": "Avenida Carrera 68" }, "geometry": { "type": "LineString", "coordinates": [ [ -74.1044094, 4.6525448 ], [ -74.1050415, 4.6516544 ], [ -74.1054705, 4.6510748 ] ] } },
{ "type": "Feature", "properties": { "name": "Avenida Carrera 68" }, "geometry": { "type": "LineString", "coordinates": [ [ -74.1243342, 4.6237989 ], [ -74.1240974, 4.6243806 ] ] } },
{ "type": "Feature", "properties": { "name": "Avenida Carrera 68" }, "geometry": { "type": "LineString", "coordinates": [ [ -74.1373161, 4.5962654 ], [ -74.1368931, 4.5968596 ], [ -74.1368473, 4.5969239 ], [ -74.1368039, 4.5969846 ], [ -74.1366977, 4.5971409 ], [ -74.1363427, 4.597663 ] ] } },
{ "type": "Feature", "properties": { "name": "Avenida Carrera 68" }, "geometry": { "type": "LineString", "coordinates": [ [ -74.1158955, 4.6398413 ], [ -74.1159312, 4.6398047 ], [ -74.1163077, 4.6394224 ], [ -74.1164203, 4.6393123 ], [ -74.1166072, 4.6391295 ], [ -74.118144, 4.6376645 ] ] } },
{ "type": "Feature", "properties": { "name": "Avenida Calle 100" }, "geometry": { "type": "LineString", "coordinates": [ [ -74.050282, 4.6857793 ], [ -74.0504136, 4.6858013 ], [ -74.0505057, 4.6858167 ], [ -74.0511839, 4.6859299 ], [ -74.0517957, 4.6860322 ] ] } },
{ "type": "Feature", "properties": { "name": "Avenida Calle 100" }, "geometry": { "type": "LineString", "coordinates": [ [ -74.0519901, 4.6857568 ], [ -74.0519034, 4.6857454 ], [ -74.0518576, 4.6857394 ], [ -74.0513055, 4.685667 ] ] } },
{ "type": "Feature", "properties": { "name": "Avenida Carrera 68" }, "geometry": { "type": "LineString", "coordinates": [ [ -74.1289031, 4.6103552 ], [ -74.129024, 4.6102133 ], [ -74.1291137, 4.6101186 ], [ -74.1292129, 4.610025 ], [ -74.1293068, 4.6099341 ], [ -74.1294087, 4.6098272 ], [ -74.1294865, 4.6097309 ], [ -74.129572, 4.6096341 ], [ -74.1296494, 4.6095394 ], [ -74.1296795, 4.6094864 ], [ -74.1297386, 4.6093691 ] ] } },
{ "type": "Feature", "properties": { "name": "Avenida Carrera 68" }, "geometry": { "type": "LineString", "coordinates": [ [ -74.0879523, 4.673878 ], [ -74.0877513, 4.6742207 ], [ -74.0873917, 4.6748299 ], [ -74.0873341, 4.6749275 ], [ -74.087169, 4.6752066 ], [ -74.0869607, 4.6755587 ], [ -74.086786, 4.6758641 ], [ -74.0864833, 4.676366 ], [ -74.0863658, 4.6765852 ], [ -74.0862091, 4.676884 ] ] } },
{ "type": "Feature", "properties": { "name": "Avenida Calle 100" }, "geometry": { "type": "LineString", "coordinates": [ [ -74.0465117, 4.6840523 ], [ -74.0459366, 4.6837586 ], [ -74.0455399, 4.6835561 ] ] } },
{ "type": "Feature", "properties": { "name": "Avenida Calle 100" }, "geometry": { "type": "LineString", "coordinates": [ [ -74.0456135, 4.683885 ], [ -74.0458245, 4.6839789 ], [ -74.0462614, 4.6841736 ] ] } },
{ "type": "Feature", "properties": { "name": "Avenida Carrera 68" }, "geometry": { "type": "LineString", "coordinates": [ [ -74.1059049, 4.6500175 ], [ -74.1053781, 4.6506652 ], [ -74.1051555, 4.6509432 ], [ -74.1050831, 4.6510395 ], [ -74.1049892, 4.6511972 ], [ -74.1048336, 4.6515046 ], [ -74.104788, 4.6515929 ], [ -74.1047317, 4.6516864 ], [ -74.1045396, 4.6519692 ], [ -74.1043358, 4.6522549 ] ] } },
{ "type": "Feature", "properties": { "name": "Avenida Carrera 68" }, "geometry": { "type": "LineString", "coordinates": [ [ -74.1087196, 4.6466774 ], [ -74.1086245, 4.6467712 ], [ -74.1085713, 4.6468236 ], [ -74.1084215, 4.6469813 ], [ -74.1083947, 4.6470095 ], [ -74.1082923, 4.6471177 ], [ -74.1080981, 4.6473321 ], [ -74.1079061, 4.6475508 ], [ -74.1072865, 4.6483153 ] ] } },
{ "type": "Feature", "properties": { "name": "Avenida Carrera 68" }, "geometry": { "type": "LineString", "coordinates": [ [ -74.1026326, 4.6548691 ], [ -74.1027445, 4.6546951 ] ] } },
{ "type": "Feature", "properties": { "name": "Avenida Carrera 68" }, "geometry": { "type": "LineString", "coordinates": [ [ -74.0809852, 4.6825799 ], [ -74.0811628, 4.6824397 ], [ -74.0825531, 4.6813127 ], [ -74.082713, 4.681183 ], [ -74.0830918, 4.6808757 ], [ -74.0832983, 4.6807019 ], [ -74.0835424, 4.6804854 ], [ -74.0837677, 4.6802929 ], [ -74.0840842, 4.6800336 ], [ -74.0845415, 4.6796677 ], [ -74.084669, 4.6795658 ], [ -74.0848218, 4.6794321 ], [ -74.0849372, 4.6793305 ], [ -74.0850114, 4.6792582 ], [ -74.0850818, 4.6791794 ], [ -74.0851382, 4.6791091 ], [ -74.0852112, 4.6790152 ] ] } },
{ "type": "Feature", "properties": { "name": "Avenida Carrera 68" }, "geometry": { "type": "LineString", "coordinates": [ [ -74.0922688, 4.6681655 ], [ -74.0927732, 4.6672807 ], [ -74.0931473, 4.6666939 ], [ -74.0933297, 4.6664159 ], [ -74.0934987, 4.6661512 ], [ -74.0936033, 4.6659855 ], [ -74.0937025, 4.6658384 ], [ -74.0938045, 4.6657261 ], [ -74.0939427, 4.6655909 ], [ -74.0940244, 4.6655136 ], [ -74.0945673, 4.6650452 ] ] } },
{ "type": "Feature", "properties": { "name": "Avenida Carrera 68" }, "geometry": { "type": "LineString", "coordinates": [ [ -74.1006504, 4.657319 ], [ -74.1007485, 4.6572132 ], [ -74.1008977, 4.657057 ], [ -74.1010023, 4.6569421 ], [ -74.1011927, 4.6567015 ], [ -74.1015548, 4.6562523 ], [ -74.101638, 4.6561695 ], [ -74.1017652, 4.6560366 ] ] } },
{ "type": "Feature", "properties": { "name": "Avenida Carrera 68" }, "geometry": { "type": "LineString", "coordinates": [ [ -74.0786655, 4.684111 ], [ -74.0781796, 4.6845068 ], [ -74.0779329, 4.6847152 ], [ -74.0775347, 4.6850513 ], [ -74.0773889, 4.6851744 ] ] } },
{ "type": "Feature", "properties": { "name": "Avenida Carrera 68" }, "geometry": { "type": "LineString", "coordinates": [ [ -74.0852112, 4.6790152 ], [ -74.0852797, 4.6789033 ], [ -74.085369, 4.6787665 ], [ -74.0855085, 4.6785312 ], [ -74.0857078, 4.6781976 ] ] } },
{ "type": "Feature", "properties": { "name": "Avenida Carrera 68" }, "geometry": { "type": "LineString", "coordinates": [ [ -74.077515, 4.6853241 ], [ -74.0775703, 4.6852812 ], [ -74.0777805, 4.6851183 ], [ -74.077898, 4.6850293 ], [ -74.078007, 4.6849466 ], [ -74.0782955, 4.684728 ], [ -74.0787992, 4.6843086 ], [ -74.0789929, 4.6841586 ], [ -74.079374, 4.6838473 ], [ -74.0796178, 4.683648 ], [ -74.0806339, 4.6828543 ], [ -74.0809852, 4.6825799 ] ] } },
{ "type": "Feature", "properties": { "name": "Avenida Carrera 68" }, "geometry": { "type": "LineString", "coordinates": [ [ -74.1088248, 4.6469479 ], [ -74.1089052, 4.6468677 ] ] } },
{ "type": "Feature", "properties": { "name": "Avenida Carrera 68" }, "geometry": { "type": "LineString", "coordinates": [ [ -74.1054705, 4.6510748 ], [ -74.1056074, 4.6508898 ], [ -74.1060045, 4.650376 ] ] } },
{ "type": "Feature", "properties": { "name": "Avenida Carrera 68" }, "geometry": { "type": "LineString", "coordinates": [ [ -74.1072865, 4.6483153 ], [ -74.1069551, 4.6487434 ] ] } },
{ "type": "Feature", "properties": { "name": "Avenida Carrera 68" }, "geometry": { "type": "LineString", "coordinates": [ [ -74.1231853, 4.6267071 ], [ -74.1229162, 4.6275534 ], [ -74.122848, 4.6277779 ], [ -74.1225924, 4.6283738 ] ] } },
{ "type": "Feature", "properties": { "name": "Avenida Carrera 68" }, "geometry": { "type": "LineString", "coordinates": [ [ -74.1240974, 4.6243806 ], [ -74.1239388, 4.6247905 ], [ -74.1238171, 4.625104 ], [ -74.1237722, 4.6252231 ] ] } },
{ "type": "Feature", "properties": { "name": "Avenida Carrera 68" }, "geometry": { "type": "LineString", "coordinates": [ [ -74.1086045, 4.6471805 ], [ -74.1086268, 4.6471566 ], [ -74.1087751, 4.6469974 ], [ -74.1088248, 4.6469479 ] ] } },
{ "type": "Feature", "properties": { "name": "Avenida Carrera 68" }, "geometry": { "type": "LineString", "coordinates": [ [ -74.133596, 4.6019556 ], [ -74.1335307, 4.6020431 ], [ -74.1334372, 4.602163 ], [ -74.1333143, 4.6023157 ], [ -74.1330321, 4.6026709 ], [ -74.1329769, 4.6027421 ], [ -74.1329138, 4.6028237 ], [ -74.1327448, 4.6030395 ], [ -74.1326819, 4.6031231 ], [ -74.1325773, 4.6032675 ], [ -74.1318111, 4.6043906 ] ] } },
{ "type": "Feature", "properties": { "name": "Avenida Carrera 68" }, "geometry": { "type": "LineString", "coordinates": [ [ -74.1256101, 4.6207046 ], [ -74.1256455, 4.6206089 ], [ -74.1256659, 4.6205539 ], [ -74.1258258, 4.620123 ], [ -74.1259626, 4.6196935 ], [ -74.1261995, 4.6189498 ], [ -74.1264073, 4.6182981 ], [ -74.1264238, 4.6182462 ], [ -74.126456, 4.618146 ] ] } },
{ "type": "Feature", "properties": { "name": "Avenida Carrera 68" }, "geometry": { "type": "LineString", "coordinates": [ [ -74.1267569, 4.6161991 ], [ -74.1267031, 4.6164376 ], [ -74.1265644, 4.6168639 ], [ -74.1262158, 4.6179216 ], [ -74.126166, 4.6180693 ], [ -74.1261363, 4.6181603 ], [ -74.1261228, 4.6182015 ] ] } },
{ "type": "Feature", "properties": { "name": "Avenida Calle 100" }, "geometry": { "type": "LineString", "coordinates": [ [ -74.0733201, 4.6886238 ], [ -74.0735079, 4.6885035 ], [ -74.0738408, 4.6882813 ], [ -74.0739873, 4.6881753 ] ] } },
{ "type": "Feature", "properties": { "name": "Avenida Calle 100" }, "geometry": { "type": "LineString", "coordinates": [ [ -74.0719498, 4.6892527 ], [ -74.0719963, 4.6892341 ], [ -74.0721066, 4.68919 ] ] } },
{ "type": "Feature", "properties": { "name": "Avenida Carrera 68" }, "geometry": { "type": "LineString", "coordinates": [ [ -74.1225924, 4.6283738 ], [ -74.1225168, 4.6285559 ], [ -74.1224927, 4.6286177 ], [ -74.1224239, 4.6287939 ] ] } },
{ "type": "Feature", "properties": { "name": "Avenida Calle 100" }, "geometry": { "type": "LineString", "coordinates": [ [ -74.0557683, 4.6865178 ], [ -74.0556466, 4.6864811 ], [ -74.0556025, 4.686469 ], [ -74.0554062, 4.6864162 ], [ -74.0549046, 4.6862719 ] ] } },
{ "type": "Feature", "properties": { "name": "Avenida Carrera 68" }, "geometry": { "type": "LineString", "coordinates": [ [ -74.1228623, 4.6283475 ], [ -74.1228735, 4.628326 ], [ -74.12291, 4.6282572 ], [ -74.1229835, 4.6281185 ], [ -74.1230556, 4.6279824 ], [ -74.1231176, 4.6278581 ], [ -74.1231574, 4.6277722 ], [ -74.123182, 4.6277191 ], [ -74.1232544, 4.62754 ], [ -74.1234716, 4.6269492 ], [ -74.1235603, 4.6267205 ], [ -74.1236272, 4.6265481 ], [ -74.1238027, 4.6261026 ], [ -74.1238579, 4.6259627 ], [ -74.1239394, 4.625734 ], [ -74.1241778, 4.625133 ], [ -74.1242569, 4.6249295 ], [ -74.1242914, 4.6248411 ], [ -74.1244411, 4.6244563 ] ] } },
{ "type": "Feature", "properties": { "name": "Avenida Carrera 68" }, "geometry": { "type": "LineString", "coordinates": [ [ -74.1275502, 4.6133642 ], [ -74.1274417, 4.6137185 ], [ -74.1273318, 4.6140928 ], [ -74.1273091, 4.6141663 ], [ -74.1271225, 4.6147705 ], [ -74.1269784, 4.6152373 ], [ -74.1269297, 4.6154036 ], [ -74.1269154, 4.6154525 ], [ -74.1268788, 4.6156092 ], [ -74.126843, 4.6157626 ], [ -74.1268081, 4.6159418 ], [ -74.1267569, 4.6161991 ] ] } },
{ "type": "Feature", "properties": { "name": "Avenida Carrera 68" }, "geometry": { "type": "LineString", "coordinates": [ [ -74.086303, 4.6772138 ], [ -74.0864162, 4.6770504 ], [ -74.0865878, 4.67677 ], [ -74.0866499, 4.6766633 ], [ -74.0868615, 4.6762992 ], [ -74.0869733, 4.676101 ], [ -74.087125, 4.6758436 ], [ -74.0873067, 4.6755293 ], [ -74.0874056, 4.6753603 ] ] } },
{ "type": "Feature", "properties": { "name": "Avenida Calle 100" }, "geometry": { "type": "LineString", "coordinates": [ [ -74.0591261, 4.687175 ], [ -74.059074, 4.6871583 ], [ -74.059043, 4.6871483 ], [ -74.0589491, 4.6871269 ], [ -74.0588364, 4.6871055 ], [ -74.0587184, 4.6870908 ], [ -74.0585521, 4.6870761 ] ] } },
{ "type": "Feature", "properties": { "name": "Avenida Carrera 68" }, "geometry": { "type": "LineString", "coordinates": [ [ -74.0862091, 4.676884 ], [ -74.0861105, 4.6770745 ], [ -74.0860439, 4.6771935 ], [ -74.085994, 4.6772828 ], [ -74.0859494, 4.6773559 ], [ -74.0857377, 4.6777043 ] ] } },
{ "type": "Feature", "properties": { "name": "Avenida Carrera 68" }, "geometry": { "type": "LineString", "coordinates": [ [ -74.1060045, 4.650376 ], [ -74.1061197, 4.6502268 ], [ -74.1067742, 4.649374 ], [ -74.1068929, 4.6492252 ], [ -74.1071807, 4.6488641 ] ] } },
{ "type": "Feature", "properties": { "name": "Avenida Carrera 68" }, "geometry": { "type": "LineString", "coordinates": [ [ -74.0874056, 4.6753603 ], [ -74.0875219, 4.6751614 ], [ -74.0875786, 4.6750604 ], [ -74.0876185, 4.6749893 ], [ -74.0878143, 4.6746204 ], [ -74.0879185, 4.6744369 ], [ -74.0881862, 4.6739776 ] ] } },
{ "type": "Feature", "properties": { "name": "Avenida Carrera 68" }, "geometry": { "type": "LineString", "coordinates": [ [ -74.1370644, 4.5970588 ], [ -74.1371555, 4.5969213 ], [ -74.1372883, 4.5966995 ], [ -74.1373837, 4.5965319 ], [ -74.1376036, 4.5961803 ], [ -74.1376766, 4.5960329 ], [ -74.1377039, 4.5959677 ], [ -74.1377478, 4.5958459 ], [ -74.137781, 4.5957306 ], [ -74.1377873, 4.5957013 ], [ -74.1377954, 4.5956635 ], [ -74.1377996, 4.5956419 ], [ -74.1378203, 4.5955356 ], [ -74.1378265, 4.5954561 ], [ -74.1378301, 4.5953908 ], [ -74.137826, 4.5952312 ] ] } },
{ "type": "Feature", "properties": { "name": "Avenida Carrera 68" }, "geometry": { "type": "LineString", "coordinates": [ [ -74.0891789, 4.6716881 ], [ -74.0891353, 4.6717492 ], [ -74.089065, 4.6718652 ], [ -74.0889872, 4.6720014 ], [ -74.0887285, 4.6724694 ], [ -74.0886174, 4.6726571 ], [ -74.0885324, 4.6728087 ], [ -74.0883012, 4.6732343 ], [ -74.0879523, 4.673878 ] ] } },
{ "type": "Feature", "properties": { "name": "Avenida Carrera 68" }, "geometry": { "type": "LineString", "coordinates": [ [ -74.0857078, 4.6781976 ], [ -74.0857847, 4.6780688 ], [ -74.0860838, 4.6775611 ], [ -74.0862005, 4.677363 ], [ -74.086303, 4.6772138 ] ] } },
{ "type": "Feature", "properties": { "name": "Avenida Carrera 68" }, "geometry": { "type": "LineString", "coordinates": [ [ -74.1221383, 4.6301581 ], [ -74.1222666, 4.6298629 ] ] } },
{ "type": "Feature", "properties": { "name": "Avenida Calle 100" }, "geometry": { "type": "LineString", "coordinates": [ [ -74.0659197, 4.6893795 ], [ -74.0662882, 4.6894638 ], [ -74.0664065, 4.6894949 ], [ -74.0664955, 4.6895183 ], [ -74.0667576, 4.6895814 ], [ -74.0669561, 4.6896269 ], [ -74.0670848, 4.689653 ] ] } },
{ "type": "Feature", "properties": { "name": "Avenida Calle 100" }, "geometry": { "type": "LineString", "coordinates": [ [ -74.073973, 4.687842 ], [ -74.0738807, 4.6879153 ] ] } },
{ "type": "Feature", "properties": { "name": "Avenida Carrera 68" }, "geometry": { "type": "LineString", "coordinates": [ [ -74.1343837, 4.6007525 ], [ -74.1342744, 4.6009176 ], [ -74.1338269, 4.6016135 ], [ -74.1336626, 4.6018649 ], [ -74.133596, 4.6019556 ] ] } },
{ "type": "Feature", "properties": { "name": "Avenida Carrera 68" }, "geometry": { "type": "LineString", "coordinates": [ [ -74.1184677, 4.637069 ], [ -74.1181009, 4.6373679 ], [ -74.1180755, 4.6373886 ], [ -74.1180399, 4.6374175 ], [ -74.117868, 4.6375661 ], [ -74.1177444, 4.6376777 ], [ -74.116972, 4.6384131 ], [ -74.1164275, 4.6389317 ], [ -74.1160887, 4.6392574 ], [ -74.1159018, 4.639437 ], [ -74.1157474, 4.6395977 ], [ -74.1157161, 4.6396303 ], [ -74.1156849, 4.6396671 ] ] } },
{ "type": "Feature", "properties": { "name": "Avenida Carrera 68" }, "geometry": { "type": "LineString", "coordinates": [ [ -74.1237722, 4.6252231 ], [ -74.1231853, 4.6267071 ] ] } },
{ "type": "Feature", "properties": { "name": "Avenida Carrera 68" }, "geometry": { "type": "LineString", "coordinates": [ [ -74.1026032, 4.6545343 ], [ -74.1024403, 4.6547258 ], [ -74.1022676, 4.6549293 ], [ -74.102143, 4.655076 ] ] } },
{ "type": "Feature", "properties": { "name": "Avenida Calle 100" }, "geometry": { "type": "LineString", "coordinates": [ [ -74.0626626, 4.6885032 ], [ -74.0627578, 4.6885308 ] ] } },
{ "type": "Feature", "properties": { "name": "Avenida Calle 100" }, "geometry": { "type": "LineString", "coordinates": [ [ -74.0617516, 4.6882373 ], [ -74.0619234, 4.6882874 ], [ -74.0620831, 4.6883341 ], [ -74.0625311, 4.6884649 ], [ -74.0625826, 4.6884799 ] ] } },
{ "type": "Feature", "properties": { "name": "Avenida Carrera 68" }, "geometry": { "type": "LineString", "coordinates": [ [ -74.1224239, 4.6287939 ], [ -74.1222737, 4.629179 ] ] } },
{ "type": "Feature", "properties": { "name": "Avenida Calle 100" }, "geometry": { "type": "LineString", "coordinates": [ [ -74.0625826, 4.6884799 ], [ -74.0626626, 4.6885032 ] ] } },
{ "type": "Feature", "properties": { "name": "Avenida Carrera 68" }, "geometry": { "type": "LineString", "coordinates": [ [ -74.1222666, 4.6298629 ], [ -74.1223521, 4.6296451 ], [ -74.1223946, 4.6295367 ], [ -74.1226744, 4.6287707 ] ] } },
{ "type": "Feature", "properties": { "name": "Avenida Calle 100" }, "geometry": { "type": "LineString", "coordinates": [ [ -74.0607155, 4.6879394 ], [ -74.0608793, 4.687986 ], [ -74.0613851, 4.68813 ], [ -74.0617516, 4.6882373 ] ] } },
{ "type": "Feature", "properties": { "name": "Avenida Carrera 68" }, "geometry": { "type": "LineString", "coordinates": [ [ -74.118144, 4.6376645 ], [ -74.1182469, 4.6375686 ], [ -74.1182785, 4.6375391 ], [ -74.1187455, 4.6371037 ] ] } },
{ "type": "Feature", "properties": { "name": "Avenida Carrera 68" }, "geometry": { "type": "LineString", "coordinates": [ [ -74.1061904, 4.649674 ], [ -74.1059049, 4.6500175 ] ] } },
{ "type": "Feature", "properties": { "name": "Avenida Carrera 68" }, "geometry": { "type": "LineString", "coordinates": [ [ -74.1043358, 4.6522549 ], [ -74.1042273, 4.652407 ] ] } },
{ "type": "Feature", "properties": { "name": "Avenida Carrera 68" }, "geometry": { "type": "LineString", "coordinates": [ [ -74.1283476, 4.6092219 ], [ -74.1283124, 4.6094017 ] ] } },
{ "type": "Feature", "properties": { "name": "Avenida Carrera 68" }, "geometry": { "type": "LineString", "coordinates": [ [ -74.1251291, 4.6221629 ], [ -74.1251755, 4.6220118 ], [ -74.1253311, 4.6215092 ], [ -74.1254882, 4.6210331 ], [ -74.1255063, 4.6209781 ] ] } },
{ "type": "Feature", "properties": { "name": "Avenida Carrera 68" }, "geometry": { "type": "LineString", "coordinates": [ [ -74.1318111, 4.6043906 ], [ -74.1317075, 4.6045487 ], [ -74.1316744, 4.6045992 ], [ -74.1316527, 4.6046328 ], [ -74.131637, 4.6046572 ] ] } },
{ "type": "Feature", "properties": { "name": "Avenida Calle 100" }, "geometry": { "type": "LineString", "coordinates": [ [ -74.0670848, 4.689653 ], [ -74.0676004, 4.6897521 ], [ -74.067647, 4.6897611 ], [ -74.0677867, 4.6897786 ], [ -74.0679637, 4.6898 ], [ -74.0680375, 4.689807 ], [ -74.0681032, 4.6898133 ], [ -74.0681559, 4.6898158 ], [ -74.068261, 4.689823 ], [ -74.0683366, 4.689824 ], [ -74.0686574, 4.6898294 ], [ -74.0689696, 4.6898347 ], [ -74.0691921, 4.6898299 ], [ -74.0692944, 4.6898266 ], [ -74.0693339, 4.6898188 ] ] } },
{ "type": "Feature", "properties": { "name": "Avenida Calle 100" }, "geometry": { "type": "LineString", "coordinates": [ [ -74.0739873, 4.6881753 ], [ -74.0741215, 4.6880755 ] ] } },
{ "type": "Feature", "properties": { "name": "Avenida Carrera 68" }, "geometry": { "type": "LineString", "coordinates": [ [ -74.131637, 4.6046572 ], [ -74.1315161, 4.6048421 ] ] } },
{ "type": "Feature", "properties": { "name": "Avenida Carrera 68" }, "geometry": { "type": "LineString", "coordinates": [ [ -74.131841, 4.6048692 ], [ -74.1318763, 4.6048151 ], [ -74.1320135, 4.604612 ] ] } },
{ "type": "Feature", "properties": { "name": "Avenida Carrera 68" }, "geometry": { "type": "LineString", "coordinates": [ [ -74.1276295, 4.6130849 ], [ -74.1275816, 4.6132541 ], [ -74.1275736, 4.6132824 ], [ -74.1275502, 4.6133642 ] ] } },
{ "type": "Feature", "properties": { "name": "Avenida Carrera 68" }, "geometry": { "type": "LineString", "coordinates": [ [ -74.1280967, 4.6114294 ], [ -74.1280746, 4.6114932 ], [ -74.1280588, 4.6115385 ], [ -74.128043, 4.6115827 ], [ -74.1279447, 4.6118631 ], [ -74.1278977, 4.6120075 ], [ -74.1278582, 4.612148 ], [ -74.1278414, 4.612208 ], [ -74.1278065, 4.612355 ], [ -74.1277314, 4.6126839 ], [ -74.1277215, 4.6127281 ], [ -74.1276912, 4.6128603 ], [ -74.1276778, 4.6129092 ], [ -74.1276295, 4.6130849 ] ] } },
{ "type": "Feature", "properties": { "name": "Avenida Carrera 68" }, "geometry": { "type": "LineString", "coordinates": [ [ -74.1283124, 4.6094017 ], [ -74.1283025, 4.6094969 ], [ -74.128299, 4.6095936 ], [ -74.128305, 4.6096552 ], [ -74.128309, 4.6096962 ], [ -74.1283299, 4.6098229 ], [ -74.128354, 4.6099576 ], [ -74.1283668, 4.6100251 ], [ -74.1283815, 4.6101239 ], [ -74.1283922, 4.610287 ], [ -74.1283909, 4.610361 ], [ -74.1283895, 4.6104367 ], [ -74.1283654, 4.6106105 ], [ -74.1283255, 4.6107723 ], [ -74.1282765, 4.6109153 ], [ -74.1282558, 4.6109755 ], [ -74.1280967, 4.6114294 ] ] } },
{ "type": "Feature", "properties": { "name": "Avenida Carrera 68" }, "geometry": { "type": "LineString", "coordinates": [ [ -74.1090688, 4.6467046 ], [ -74.1092177, 4.6465563 ], [ -74.1093012, 4.646475 ], [ -74.1100358, 4.6457596 ], [ -74.1101199, 4.645675 ] ] } },
{ "type": "Feature", "properties": { "name": "Avenida Calle 100" }, "geometry": { "type": "LineString", "coordinates": [ [ -74.0548923, 4.6865525 ], [ -74.0551856, 4.6866023 ], [ -74.0553686, 4.6866354 ], [ -74.0557066, 4.6867183 ] ] } },
{ "type": "Feature", "properties": { "name": "Avenida Calle 100" }, "geometry": { "type": "LineString", "coordinates": [ [ -74.0545374, 4.686491 ], [ -74.0548923, 4.6865525 ] ] } },
{ "type": "Feature", "properties": { "name": "Avenida Calle 100" }, "geometry": { "type": "LineString", "coordinates": [ [ -74.0544799, 4.6864805 ], [ -74.0545374, 4.686491 ] ] } },
{ "type": "Feature", "properties": { "name": "Avenida Calle 100" }, "geometry": { "type": "LineString", "coordinates": [ [ -74.0517957, 4.6860322 ], [ -74.0518599, 4.6860429 ], [ -74.0519398, 4.6860562 ] ] } },
{ "type": "Feature", "properties": { "name": "Avenida Calle 100" }, "geometry": { "type": "LineString", "coordinates": [ [ -74.0452707, 4.6837263 ], [ -74.0454637, 4.683815 ], [ -74.0454667, 4.6838165 ] ] } },
{ "type": "Feature", "properties": { "name": "Avenida Calle 100" }, "geometry": { "type": "LineString", "coordinates": [ [ -74.0434684, 4.6825325 ], [ -74.0433915, 4.6824901 ], [ -74.0433639, 4.6824748 ] ] } },
{ "type": "Feature", "properties": { "name": "Avenida Calle 100" }, "geometry": { "type": "LineString", "coordinates": [ [ -74.0498312, 4.6856465 ], [ -74.050282, 4.6857793 ] ] } },
{ "type": "Feature", "properties": { "name": "Avenida Calle 100" }, "geometry": { "type": "LineString", "coordinates": [ [ -74.0437656, 4.6826965 ], [ -74.0437415, 4.6826833 ], [ -74.0436196, 4.682616 ], [ -74.0435496, 4.6825773 ], [ -74.0434684, 4.6825325 ] ] } },
{ "type": "Feature", "properties": { "name": "Avenida Calle 100" }, "geometry": { "type": "LineString", "coordinates": [ [ -74.0455497, 4.683856 ], [ -74.0456135, 4.683885 ] ] } },
{ "type": "Feature", "properties": { "name": "Avenida Calle 100" }, "geometry": { "type": "LineString", "coordinates": [ [ -74.0454667, 4.6838165 ], [ -74.0455497, 4.683856 ] ] } },
{ "type": "Feature", "properties": { "name": "Avenida Calle 100" }, "geometry": { "type": "LineString", "coordinates": [ [ -74.040514, 4.6810498 ], [ -74.0401704, 4.6808731 ] ] } },
{ "type": "Feature", "properties": { "name": "Avenida Calle 100" }, "geometry": { "type": "LineString", "coordinates": [ [ -74.0406889, 4.6811398 ], [ -74.040514, 4.6810498 ] ] } },
{ "type": "Feature", "properties": { "name": "Avenida Carrera 68" }, "geometry": { "type": "LineString", "coordinates": [ [ -74.1300745, 4.6076728 ], [ -74.1303915, 4.6071316 ], [ -74.1307575, 4.6065449 ], [ -74.1308196, 4.606447 ], [ -74.1310315, 4.6061127 ], [ -74.131082, 4.6060331 ], [ -74.1312265, 4.6058052 ] ] } },
{ "type": "Feature", "properties": { "name": "Avenida 68" }, "geometry": { "type": "LineString", "coordinates": [ [ -74.1299309, 4.607927 ], [ -74.1299706, 4.6078579 ], [ -74.1300745, 4.6076728 ] ] } },
{ "type": "Feature", "properties": { "name": "Avenida Calle 100" }, "geometry": { "type": "LineString", "coordinates": [ [ -74.0433381, 4.6827995 ], [ -74.0434095, 4.6828393 ] ] } },
{ "type": "Feature", "properties": { "name": "Avenida Carrera 68" }, "geometry": { "type": "LineString", "coordinates": [ [ -74.1222737, 4.629179 ], [ -74.122224, 4.6293093 ], [ -74.1221332, 4.6295398 ], [ -74.1221158, 4.6295839 ], [ -74.121987, 4.629894 ], [ -74.1217912, 4.6303258 ], [ -74.1217483, 4.630414 ], [ -74.1216759, 4.630553 ], [ -74.1215445, 4.6308043 ], [ -74.121456, 4.6309914 ], [ -74.1211282, 4.6317894 ], [ -74.1208773, 4.6323603 ] ] } },
{ "type": "Feature", "properties": { "name": "Avenida Carrera 68" }, "geometry": { "type": "LineString", "coordinates": [ [ -74.1226744, 4.6287707 ], [ -74.1227366, 4.6286068 ], [ -74.1228016, 4.6284623 ], [ -74.1228623, 4.6283475 ] ] } }
]
}
